{"type":"FeatureCollection","attribution":"© OpenStreetMap-bidragsgivare, ODbL","features":[{"type":"Feature","properties":{"name":"Blekinge län","osm_relation_id":54413},"geometry":{"type":"Polygon","coordinates":[[[14.39015,56.30133],[14.40872,56.3042],[14.40546,56.29422],[14.43077,56.28956],[14.42628,56.25985],[14.43548,56.25337],[14.42707,56.24758],[14.44087,56.22905],[14.46615,56.22469],[14.46751,56.23925],[14.5185,56.21417],[14.53116,56.22344],[14.56664,56.22412],[14.58625,56.12917],[14.57832,56.09749],[14.55586,56.08294],[14.55381,56.06634],[14.5321,56.03688],[14.53275,56.01201],[14.59533,55.755],[14.79894,55.7968],[14.91661,55.80423],[14.99185,55.81807],[15.08245,55.84968],[15.15826,55.89823],[15.30656,55.88961],[15.46236,55.79773],[15.55547,55.76386],[15.65022,55.74862],[15.76093,55.74971],[15.89364,55.77918],[15.95786,55.80893],[16.0256,55.85635],[16.21948,55.91413],[16.22368,56.30529],[16.04234,56.32273],[16.01813,56.31327],[16.01163,56.29741],[15.97915,56.30089],[15.9702,56.31401],[15.94268,56.31961],[15.9096,56.3148],[15.84185,56.32275],[15.80701,56.34183],[15.73579,56.41452],[15.67737,56.42496],[15.65644,56.46217],[15.63601,56.45708],[15.59923,56.47205],[15.58594,56.48454],[15.58576,56.49524],[15.54867,56.50354],[15.52388,56.50249],[15.50534,56.47405],[15.4685,56.48731],[15.44704,56.4825],[15.43884,56.49433],[15.38118,56.49989],[15.32032,56.45551],[15.28683,56.4567],[15.26437,56.471],[15.20863,56.45945],[15.22001,56.45091],[15.21448,56.44037],[15.18682,56.42799],[15.14594,56.43653],[15.12463,56.4551],[15.04988,56.45209],[15.05034,56.43772],[15.03315,56.45078],[15.01398,56.44876],[14.97923,56.43403],[14.96542,56.40021],[14.90442,56.36135],[14.85975,56.35888],[14.77919,56.38246],[14.67872,56.38723],[14.62454,56.42021],[14.61485,56.43767],[14.51455,56.45999],[14.47251,56.40824],[14.41378,56.40022],[14.41883,56.36713],[14.41284,56.36702],[14.39015,56.30133]]]}},{"type":"Feature","properties":{"name":"Dalarnas län","osm_relation_id":52834},"geometry":{"type":"MultiPolygon","coordinates":[[[[12.13767,61.72382],[12.27563,61.64024],[12.34122,61.61467],[12.41961,61.56298],[12.56932,61.56875],[12.87085,61.3565],[12.83383,61.25846],[12.79035,61.19705],[12.70703,61.14327],[12.68258,61.06122],[12.67023,61.056],[12.6987,60.99812],[13.08164,60.80582],[13.15947,60.7551],[13.19884,60.696],[13.19418,60.68479],[13.24877,60.68611],[13.27582,60.64445],[13.42817,60.51703],[13.46808,60.45942],[13.54234,60.42247],[13.67083,60.40336],[13.82797,60.25477],[13.96552,60.1752],[14.01193,60.19111],[13.95107,60.251],[13.99098,60.25152],[14.02291,60.24235],[14.02368,60.22884],[14.1492,60.23066],[14.15762,60.2072],[14.19689,60.16328],[14.2127,60.09574],[14.43704,60.02572],[14.75363,59.99718],[14.73734,60.08175],[14.80766,60.11093],[14.85001,60.10457],[14.83818,60.08836],[14.90478,60.05134],[15.01343,60.05739],[15.03404,60.03918],[15.04763,60.04948],[15.07768,60.04112],[15.12546,60.00842],[15.20542,60.00178],[15.22843,59.97613],[15.35526,59.89399],[15.36465,59.87713],[15.3792,59.87753],[15.42224,59.85415],[15.46045,59.89466],[15.48779,59.89829],[15.47339,59.9097],[15.50102,59.92802],[15.49297,59.93604],[15.53123,59.95716],[15.60198,59.94806],[15.62346,59.93414],[15.68175,59.93792],[15.67751,59.94542],[15.6926,59.94778],[15.71954,59.97373],[15.71441,60.00015],[15.6986,60.01536],[15.73188,60.02552],[15.69687,60.03386],[15.68234,60.05199],[15.70657,60.0451],[15.70763,60.05752],[15.73808,60.08006],[15.7123,60.08194],[15.72093,60.09345],[15.74774,60.10025],[15.7477,60.11126],[15.75994,60.11571],[15.765,60.13063],[15.72636,60.1283],[15.72537,60.14491],[15.76704,60.14809],[15.80142,60.17748],[15.88198,60.1663],[15.92657,60.17232],[15.94626,60.18498],[16.02395,60.18215],[16.05188,60.14861],[16.13221,60.13863],[16.16387,60.1203],[16.1418,60.0925],[16.18152,60.08449],[16.18413,60.076],[16.20759,60.07276],[16.22267,60.08252],[16.2887,60.06993],[16.32172,60.07311],[16.32067,60.07881],[16.3872,60.08141],[16.38521,60.08941],[16.40625,60.09027],[16.4043,60.10221],[16.43807,60.12477],[16.53895,60.13739],[16.53858,60.15139],[16.52703,60.16462],[16.54359,60.17513],[16.70479,60.19509],[16.69144,60.21487],[16.62933,60.23857],[16.61518,60.27887],[16.57933,60.29761],[16.52959,60.34784],[16.42321,60.37919],[16.39262,60.37933],[16.33716,60.42151],[16.28291,60.47243],[16.27941,60.48547],[16.25102,60.48685],[16.27133,60.49222],[16.2589,60.49319],[16.19482,60.53531],[16.13649,60.61031],[16.23841,60.62311],[16.3178,60.68946],[16.30763,60.70619],[16.33453,60.72893],[16.34328,60.72501],[16.37701,60.74356],[16.38578,60.75979],[16.38625,60.78681],[16.25515,60.86383],[16.13101,60.99214],[15.92135,61.00766],[15.76196,61.04964],[15.68032,61.11327],[15.65735,61.21562],[15.44013,61.33316],[15.30083,61.42612],[15.20496,61.50387],[15.15326,61.59579],[15.09322,61.48412],[14.90023,61.4966],[14.73077,61.49664],[14.67981,61.48612],[14.65588,61.50089],[14.67495,61.52828],[14.65382,61.56119],[14.67582,61.5753],[14.67663,61.59125],[14.44649,61.59459],[14.39458,61.56391],[14.33613,61.59937],[14.28509,61.60825],[13.97679,61.6214],[13.89795,61.63506],[13.5985,61.6564],[13.55914,61.64352],[13.48992,61.68998],[13.49623,61.71349],[13.49733,61.702],[13.51154,61.70976],[13.41317,61.79648],[13.38316,61.83397],[13.26132,61.91282],[13.20032,61.9291],[13.39193,62.00081],[13.29354,62.01162],[13.28614,62.05808],[13.15868,62.01966],[13.11648,62.04157],[13.04519,62.062],[13.0386,62.07143],[13.00348,62.06576],[12.95144,62.13342],[12.90264,62.14185],[12.80655,62.2202],[12.60781,62.21478],[12.29937,62.2675],[12.13767,61.72382]],[[16.40112,60.09039],[16.4,60.09099],[16.40224,60.09123],[16.40112,60.09039]]],[[[15.06989,59.99551],[15.06675,59.99393],[15.0702,59.99422],[15.06989,59.99551]]],[[[16.56258,60.3167],[16.56245,60.31585],[16.56293,60.31592],[16.56258,60.3167]]],[[[16.69408,60.21757],[16.69336,60.21669],[16.69458,60.21304],[16.69559,60.21238],[16.69408,60.21757]]]]}},{"type":"Feature","properties":{"name":"Gotlands län","osm_relation_id":941530},"geometry":{"type":"Polygon","coordinates":[[[17.58746,57.28675],[17.59732,57.2384],[17.63338,57.18588],[17.68584,57.14551],[17.76405,57.11004],[17.7835,57.05012],[17.75865,56.93583],[17.76277,56.87935],[17.80056,56.81445],[17.86783,56.76409],[17.93449,56.73511],[18.01477,56.71465],[18.20482,56.70134],[18.29218,56.70891],[18.42673,56.73795],[18.54377,56.78114],[18.69132,56.87302],[18.9933,57.10336],[19.28441,57.31233],[19.33306,57.36125],[19.35742,57.41392],[19.35844,57.46874],[19.33225,57.52246],[19.28401,57.56741],[19.66444,57.84984],[19.70031,57.88692],[19.721,57.92715],[19.72617,57.96313],[19.72034,58.03001],[19.69731,58.08419],[19.63039,58.14376],[19.53256,58.18641],[19.63401,58.24945],[19.68233,58.29881],[19.7042,58.35856],[19.69036,58.42056],[19.64057,58.47727],[19.54769,58.53005],[19.46086,58.56205],[19.3448,58.58557],[19.20413,58.59729],[19.09446,58.59303],[18.9946,58.57394],[18.89945,58.5362],[18.85065,58.50322],[18.81184,58.45904],[18.79529,58.41574],[18.79756,58.36784],[18.81785,58.32623],[18.88081,58.24425],[18.92533,58.20978],[18.98872,58.17838],[18.61533,58.12234],[18.53042,58.10292],[18.4681,58.08175],[18.32615,58.01021],[18.23704,57.98109],[18.17598,57.95027],[18.1153,57.90195],[18.05725,57.82418],[18.01536,57.78248],[17.88062,57.71081],[17.77037,57.62174],[17.73869,57.56838],[17.71493,57.48834],[17.71193,57.43964],[17.6584,57.40734],[17.62008,57.37112],[17.59557,57.32878],[17.58746,57.28675]]]}},{"type":"Feature","properties":{"name":"Gävleborgs län","osm_relation_id":52832},"geometry":{"type":"MultiPolygon","coordinates":[[[[14.44649,61.59459],[14.67663,61.59125],[14.67582,61.5753],[14.65382,61.56119],[14.67495,61.52828],[14.65588,61.50089],[14.67935,61.48616],[14.73077,61.49664],[14.90023,61.4966],[15.09322,61.48412],[15.15326,61.59579],[15.20496,61.50387],[15.30083,61.42612],[15.44013,61.33316],[15.65735,61.21562],[15.68032,61.11327],[15.76196,61.04964],[15.92135,61.00766],[16.13101,60.99214],[16.25515,60.86383],[16.38625,60.78681],[16.38578,60.75979],[16.37701,60.74356],[16.34328,60.72501],[16.33453,60.72893],[16.30763,60.70619],[16.3178,60.68946],[16.23841,60.62311],[16.13649,60.61031],[16.19482,60.53531],[16.2589,60.49319],[16.27133,60.49222],[16.25102,60.48685],[16.27941,60.48547],[16.28291,60.47243],[16.33716,60.42151],[16.39262,60.37933],[16.42321,60.37919],[16.51654,60.35548],[16.54275,60.33998],[16.56123,60.31677],[16.57339,60.30643],[16.57933,60.29761],[16.61518,60.27887],[16.62933,60.23857],[16.69144,60.21487],[16.70479,60.19509],[16.77904,60.18992],[16.79947,60.19958],[16.80261,60.21212],[16.84182,60.21684],[16.90491,60.23949],[16.88821,60.24451],[16.88644,60.25491],[16.91216,60.26938],[16.90888,60.2815],[16.9197,60.28562],[16.98052,60.29527],[17.00206,60.27492],[17.05847,60.27297],[17.08241,60.25921],[17.1129,60.26932],[17.1031,60.28083],[17.15755,60.28742],[17.19382,60.30081],[17.19678,60.34511],[17.21361,60.36499],[17.19955,60.36575],[17.19933,60.37854],[17.18908,60.38227],[17.1923,60.40412],[17.21733,60.41962],[17.21764,60.43396],[17.25383,60.43521],[17.25661,60.42447],[17.28783,60.44681],[17.29786,60.46482],[17.30272,60.5089],[17.34893,60.58617],[17.38189,60.67694],[17.39559,60.68576],[17.7095,60.70837],[17.95716,60.90691],[17.88378,60.93466],[17.76648,61.1711],[17.80701,61.24792],[17.87929,61.50489],[17.97333,61.69057],[18.05838,61.97524],[18.11638,62.08718],[17.52791,62.13261],[17.31967,62.15701],[17.2164,62.15024],[17.20704,62.16122],[17.11692,62.15561],[17.06995,62.16392],[16.96184,62.16294],[16.80141,62.20283],[16.63268,62.21424],[16.52093,62.23301],[16.43534,62.23619],[16.23116,62.2343],[16.01333,62.25922],[15.61316,62.34349],[15.50535,62.33863],[15.37852,62.29724],[15.32612,62.27199],[15.35674,62.21362],[15.39924,62.19484],[15.42925,62.1449],[15.41715,62.11139],[15.34017,62.09127],[15.09214,61.99685],[15.11056,61.95683],[15.14062,61.95217],[15.11247,61.93546],[15.11589,61.89444],[15.08544,61.89617],[15.10863,61.84397],[15.0918,61.81912],[15.04758,61.82388],[15.04496,61.86801],[14.90487,61.87932],[14.92785,61.82131],[14.86537,61.80899],[14.86313,61.82738],[14.80584,61.8862],[14.76089,61.86414],[14.80934,61.8182],[14.84169,61.8042],[14.85628,61.78359],[14.78524,61.80465],[14.70141,61.87642],[14.68638,61.90162],[14.52476,61.78459],[14.51663,61.73433],[14.5222,61.73417],[14.51534,61.72711],[14.49938,61.62588],[14.44649,61.59459]],[[15.25865,62.04872],[15.25891,62.05092],[15.26054,62.04985],[15.25865,62.04872]],[[15.27782,62.04782],[15.28325,62.04992],[15.28427,62.04937],[15.27782,62.04782]],[[15.3259,62.06312],[15.31918,62.07083],[15.33001,62.06464],[15.3259,62.06312]],[[15.36518,62.02489],[15.38064,62.03129],[15.41745,62.01146],[15.39545,62.0089],[15.36518,62.02489]],[[16.46629,62.23356],[16.4667,62.23379],[16.46894,62.23349],[16.46629,62.23356]],[[16.56245,60.31585],[16.56258,60.3167],[16.56293,60.31592],[16.56245,60.31585]],[[16.69336,60.21669],[16.69408,60.21757],[16.69559,60.21238],[16.69336,60.21669]]],[[[14.75985,61.83474],[14.7613,61.83358],[14.76142,61.83485],[14.75985,61.83474]]],[[[14.76225,61.83795],[14.76514,61.83558],[14.76793,61.83923],[14.76225,61.83795]]],[[[14.76394,61.8503],[14.76394,61.84984],[14.7647,61.85005],[14.76394,61.8503]]],[[[14.76615,61.84997],[14.76632,61.8489],[14.76692,61.8498],[14.76615,61.84997]]],[[[14.76855,61.84922],[14.76859,61.84742],[14.77506,61.84577],[14.76855,61.84922]]],[[[15.13538,62.03292],[15.13831,62.03],[15.14177,62.02975],[15.13538,62.03292]]],[[[15.14844,62.03247],[15.14717,62.03063],[15.15156,62.03189],[15.14844,62.03247]]],[[[15.17751,62.04566],[15.1786,62.04474],[15.17896,62.045],[15.17751,62.04566]]],[[[16.61083,62.22504],[16.61092,62.2231],[16.61239,62.22369],[16.61083,62.22504]]],[[[16.61593,62.22474],[16.61627,62.22409],[16.61639,62.22435],[16.61593,62.22474]]],[[[16.61676,62.22725],[16.62171,62.22599],[16.62332,62.22607],[16.61676,62.22725]]],[[[16.63388,62.22577],[16.62789,62.22449],[16.63564,62.22464],[16.64514,62.21949],[16.63914,62.22429],[16.63388,62.22577]]],[[[16.64029,62.22477],[16.64152,62.22405],[16.64194,62.22423],[16.64029,62.22477]]]]}},{"type":"Feature","properties":{"name":"Hallands län","osm_relation_id":54403},"geometry":{"type":"MultiPolygon","coordinates":[[[[11.45355,57.50018],[11.52086,57.45303],[11.58585,57.38304],[11.68417,57.17306],[12.0058,56.97309],[12.29875,56.637],[12.24085,56.55722],[12.79711,56.55217],[12.89555,56.4495],[12.95774,56.43996],[12.9524,56.43115],[12.96576,56.4277],[12.95776,56.4134],[12.96858,56.41139],[12.95285,56.39212],[12.96799,56.38904],[12.94981,56.36932],[12.97437,56.3668],[12.98103,56.3583],[13.13091,56.35578],[13.18117,56.34013],[13.18786,56.32563],[13.21638,56.32716],[13.29285,56.38057],[13.34667,56.39051],[13.38559,56.41451],[13.43932,56.41911],[13.46735,56.43179],[13.44988,56.46787],[13.4542,56.49751],[13.46479,56.51396],[13.43999,56.55445],[13.43989,56.57126],[13.41781,56.57764],[13.40253,56.59249],[13.39727,56.61574],[13.36414,56.6651],[13.32827,56.68769],[13.30779,56.68547],[13.32511,56.70757],[13.31712,56.71952],[13.31887,56.78224],[13.29816,56.82365],[13.33791,56.83824],[13.33463,56.87416],[13.35896,56.85729],[13.40507,56.87059],[13.43222,56.86904],[13.44369,56.8798],[13.48727,56.87106],[13.52988,56.89129],[13.58227,56.89007],[13.61817,56.90859],[13.66203,56.91355],[13.68742,56.92681],[13.6889,56.9371],[13.68155,56.9422],[13.69357,56.96354],[13.66418,56.9846],[13.63041,56.98621],[13.62898,56.99402],[13.59546,57.01525],[13.60262,57.02404],[13.58551,57.03255],[13.60795,57.04203],[13.60359,57.05966],[13.57372,57.0628],[13.56878,57.06554],[13.57422,57.07002],[13.53289,57.07901],[13.52725,57.0874],[13.50541,57.08508],[13.50072,57.07356],[13.48968,57.0855],[13.50081,57.08981],[13.49929,57.10654],[13.48903,57.11384],[13.45335,57.09649],[13.45401,57.10379],[13.44037,57.11028],[13.38717,57.1139],[13.28934,57.10343],[13.2723,57.09122],[13.22698,57.09688],[13.23338,57.0902],[13.22387,57.08369],[13.23371,57.07906],[13.1921,57.06426],[13.17994,57.06684],[13.16189,57.05153],[13.19031,57.05836],[13.19638,57.05078],[13.12118,57.02514],[13.12186,57.03584],[13.11325,57.04082],[13.12104,57.05751],[13.08121,57.08355],[13.08962,57.0861],[13.07907,57.0989],[13.08987,57.10563],[13.08454,57.11261],[13.09908,57.12848],[13.07707,57.12759],[13.10028,57.14556],[13.09672,57.15874],[13.05239,57.14644],[13.04535,57.15548],[13.02091,57.15749],[13.03901,57.18029],[12.97396,57.18325],[12.92085,57.1756],[12.91083,57.18397],[12.92033,57.19884],[12.91443,57.21983],[12.95416,57.2412],[12.93124,57.25072],[12.93171,57.26297],[12.90612,57.27035],[12.83615,57.26972],[12.80754,57.30111],[12.77551,57.2758],[12.75868,57.2734],[12.74032,57.30092],[12.70299,57.31347],[12.7055,57.32355],[12.69238,57.33461],[12.6754,57.32999],[12.65526,57.34138],[12.64357,57.32986],[12.62252,57.33193],[12.62313,57.344],[12.60471,57.34693],[12.56005,57.33031],[12.55877,57.32116],[12.53723,57.31949],[12.52953,57.3027],[12.50458,57.28106],[12.49283,57.28679],[12.43022,57.26936],[12.42114,57.30707],[12.43221,57.31505],[12.42457,57.32346],[12.41752,57.31957],[12.39749,57.32866],[12.38445,57.34699],[12.39605,57.38116],[12.4195,57.40066],[12.40515,57.41288],[12.41183,57.4171],[12.40451,57.43419],[12.37785,57.44885],[12.33766,57.45106],[12.3228,57.46076],[12.34452,57.48878],[12.31157,57.52098],[12.34095,57.56172],[12.27723,57.59754],[12.17543,57.56483],[12.10054,57.56175],[12.07506,57.5509],[12.01267,57.54567],[11.98785,57.56506],[11.81803,57.55642],[11.77911,57.49967],[11.45355,57.50018]],[[13.19419,57.0551],[13.2015,57.05796],[13.20666,57.05661],[13.20024,57.05382],[13.19419,57.0551]]],[[[12.52846,57.33446],[12.53262,57.33049],[12.53257,57.3318],[12.52846,57.33446]]],[[[13.15043,57.04424],[13.1489,57.04348],[13.15059,57.04414],[13.15043,57.04424]]],[[[13.15131,57.04369],[13.14989,57.04286],[13.15157,57.04353],[13.15131,57.04369]]],[[[13.15173,57.04342],[13.15016,57.04269],[13.15186,57.04334],[13.15173,57.04342]]],[[[13.62726,56.99954],[13.62681,56.99674],[13.62777,56.99717],[13.62726,56.99954]]]]}},{"type":"Feature","properties":{"name":"Jämtlands län","osm_relation_id":52826},"geometry":{"type":"MultiPolygon","coordinates":[[[[11.97458,63.26923],[12.21823,63.00033],[12.07469,62.90255],[12.13638,62.74792],[12.05614,62.61192],[12.29937,62.2675],[12.60781,62.21478],[12.80655,62.2202],[12.90264,62.14185],[12.95144,62.13342],[13.00348,62.06576],[13.0386,62.07143],[13.04519,62.062],[13.11648,62.04157],[13.15868,62.01966],[13.28614,62.05808],[13.29354,62.01162],[13.39193,62.00081],[13.20032,61.9291],[13.26132,61.91282],[13.38316,61.83397],[13.41317,61.79648],[13.51154,61.70976],[13.49733,61.702],[13.49623,61.71349],[13.48992,61.68998],[13.55914,61.64352],[13.5985,61.6564],[13.89795,61.63506],[13.97679,61.6214],[14.28509,61.60825],[14.33613,61.59937],[14.39458,61.56391],[14.49938,61.62588],[14.51534,61.72711],[14.5222,61.73417],[14.51663,61.73433],[14.52476,61.78459],[14.67294,61.89662],[14.68638,61.90162],[14.70141,61.87642],[14.78524,61.80465],[14.85628,61.78359],[14.84169,61.8042],[14.80934,61.8182],[14.76089,61.86414],[14.80584,61.8862],[14.86313,61.82738],[14.86537,61.80899],[14.92785,61.82131],[14.90487,61.87932],[15.04496,61.86801],[15.04758,61.82388],[15.0918,61.81912],[15.10863,61.84397],[15.08544,61.89617],[15.11589,61.89444],[15.11247,61.93546],[15.14062,61.95217],[15.11056,61.95683],[15.09214,61.99685],[15.34017,62.09127],[15.41715,62.11139],[15.42218,62.12461],[15.42925,62.1449],[15.39924,62.19484],[15.35674,62.21362],[15.32612,62.27199],[15.2846,62.29295],[15.15264,62.24998],[14.93951,62.32033],[14.86528,62.39078],[14.87514,62.40225],[14.80123,62.40406],[14.7964,62.46454],[14.83877,62.45939],[14.85042,62.4668],[14.84105,62.4724],[14.84253,62.48793],[14.83047,62.49728],[14.8296,62.5084],[14.80227,62.5275],[14.80959,62.56238],[14.78109,62.59077],[14.96712,62.6008],[15.09354,62.58407],[15.12768,62.55909],[15.2451,62.6004],[15.51685,62.61724],[15.63959,62.63479],[15.96538,62.71278],[16.13046,62.69121],[16.2457,62.71018],[16.3699,62.69627],[16.41877,62.77111],[16.49268,62.8073],[16.67019,62.91688],[16.68012,62.91201],[16.70765,62.92111],[16.7092,62.91336],[16.72018,62.92199],[16.99898,62.94697],[16.88842,63.01599],[16.60155,63.17313],[16.27544,63.30111],[16.28733,63.31095],[16.24776,63.31194],[16.19666,63.33163],[16.2038,63.33712],[16.09596,63.36918],[16.1315,63.38301],[16.13952,63.42127],[16.05079,63.44756],[16.01735,63.43064],[15.96583,63.44413],[15.99746,63.55064],[15.92666,63.59354],[15.79207,63.65782],[15.89894,63.683],[15.91024,63.67464],[15.9058,63.66422],[15.98152,63.65303],[16.08716,63.70432],[16.13375,63.68681],[16.13384,63.68994],[16.2233,63.66232],[16.22387,63.66121],[16.2708,63.65974],[16.31928,63.69773],[16.3409,63.69049],[16.3483,63.69694],[16.6142,63.71399],[16.59745,63.75446],[16.57454,63.78268],[16.56608,63.83134],[16.58125,63.8732],[16.71861,64.02738],[16.21925,64.26398],[16.16545,64.26123],[16.14477,64.26765],[16.04255,64.24887],[16.01971,64.26909],[16.02235,64.3328],[15.85356,64.37561],[15.8691,64.38198],[15.75359,64.40686],[15.74025,64.404],[15.70437,64.538],[15.63617,64.5196],[15.64717,64.44798],[15.57952,64.44343],[15.57742,64.45453],[15.58247,64.45528],[15.55337,64.48639],[15.55731,64.49619],[15.53847,64.50721],[15.54317,64.51858],[15.52076,64.53215],[15.43962,64.5572],[15.42773,64.58343],[15.37009,64.5837],[15.31558,64.62072],[15.24045,64.63552],[15.34145,64.64671],[15.33445,64.66904],[15.29118,64.67749],[15.26539,64.69991],[15.18624,64.74046],[15.03291,64.7604],[15.02686,64.77915],[15.03527,64.79141],[14.97393,64.84614],[14.83737,64.87815],[14.84655,64.88293],[14.84138,64.8924],[14.77231,64.91355],[14.7807,64.92047],[14.77853,64.93983],[14.75434,64.95431],[14.71174,64.96075],[14.7143,64.96879],[14.69751,64.99049],[14.61303,65.00236],[14.32599,65.11892],[13.97757,64.85966],[13.70547,64.63996],[13.65426,64.58034],[13.89118,64.50713],[14.08523,64.47825],[14.11387,64.46248],[14.15711,64.19506],[13.96753,64.00797],[13.7154,64.04629],[13.21111,64.09537],[12.92672,64.05795],[12.68357,63.97422],[12.33058,63.71507],[12.29946,63.67198],[12.14977,63.59394],[12.21288,63.47859],[12.08409,63.35558],[11.97458,63.26923]],[[14.7613,61.83358],[14.75985,61.83474],[14.76142,61.83485],[14.7613,61.83358]],[[14.76514,61.83558],[14.76225,61.83795],[14.76793,61.83923],[14.76514,61.83558]],[[14.76394,61.84984],[14.76394,61.8503],[14.7647,61.85005],[14.76394,61.84984]],[[14.76632,61.8489],[14.76615,61.84997],[14.76692,61.8498],[14.76632,61.8489]],[[14.76859,61.84742],[14.76855,61.84922],[14.77506,61.84577],[14.76859,61.84742]],[[14.78035,62.4731],[14.79274,62.47311],[14.79322,62.46726],[14.78912,62.46605],[14.78035,62.4731]],[[14.79806,62.46586],[14.79761,62.46627],[14.7984,62.4661],[14.79806,62.46586]],[[15.13831,62.03],[15.13538,62.03292],[15.14177,62.02975],[15.13831,62.03]],[[15.14717,62.03063],[15.14844,62.03247],[15.15156,62.03189],[15.14717,62.03063]],[[15.1786,62.04474],[15.17751,62.04566],[15.17896,62.045],[15.1786,62.04474]]],[[[15.25891,62.05092],[15.25865,62.04872],[15.26054,62.04985],[15.25891,62.05092]]],[[[15.28325,62.04992],[15.27782,62.04782],[15.28427,62.04937],[15.28325,62.04992]]],[[[15.31918,62.07083],[15.3259,62.06312],[15.33001,62.06464],[15.31918,62.07083]]],[[[15.36518,62.02489],[15.39545,62.0089],[15.41745,62.01146],[15.38064,62.03129],[15.36518,62.02489]]],[[[15.58145,64.45329],[15.58116,64.45298],[15.58174,64.45309],[15.58145,64.45329]]],[[[16.21726,63.66251],[16.21945,63.66146],[16.22215,63.66231],[16.21726,63.66251]]]]}},{"type":"Feature","properties":{"name":"Jönköpings län","osm_relation_id":54374},"geometry":{"type":"MultiPolygon","coordinates":[[[[13.07707,57.12759],[13.09908,57.12848],[13.08454,57.11261],[13.08987,57.10563],[13.07907,57.0989],[13.08962,57.0861],[13.08121,57.08355],[13.12104,57.05751],[13.11325,57.04082],[13.12186,57.03584],[13.12118,57.02514],[13.19638,57.05078],[13.19031,57.05836],[13.16189,57.05153],[13.17994,57.06684],[13.1921,57.06426],[13.23371,57.07906],[13.22387,57.08369],[13.23338,57.0902],[13.22698,57.09688],[13.2723,57.09122],[13.28934,57.10343],[13.38717,57.1139],[13.44037,57.11028],[13.45401,57.10379],[13.45335,57.09649],[13.48903,57.11384],[13.49929,57.10654],[13.50081,57.08981],[13.48968,57.0855],[13.50072,57.07356],[13.50541,57.08508],[13.52725,57.0874],[13.53289,57.07901],[13.57422,57.07002],[13.56878,57.06554],[13.57372,57.0628],[13.59888,57.0633],[13.60795,57.04203],[13.58551,57.03255],[13.60262,57.02404],[13.59546,57.01525],[13.62898,56.99402],[13.63041,56.98621],[13.66418,56.9846],[13.6807,56.9721],[13.69142,56.97604],[13.71262,57.01796],[13.73312,57.036],[13.76024,57.03563],[13.75456,57.02883],[13.77632,57.02422],[13.80249,57.02877],[13.82186,57.008],[13.85413,56.9982],[13.87442,57.01839],[13.91032,57.01842],[13.9243,57.02942],[13.92477,57.04059],[13.97569,57.04149],[13.98999,57.02935],[14.0168,57.05182],[14.07024,57.04644],[14.10019,57.03488],[14.09481,57.0211],[14.15239,57.02941],[14.15824,57.01321],[14.1531,56.99842],[14.18035,56.98871],[14.19177,56.95781],[14.21613,56.95496],[14.20929,56.94525],[14.22082,56.93568],[14.22543,56.91132],[14.25584,56.88674],[14.32312,56.88192],[14.34562,56.91341],[14.37585,56.93188],[14.39492,56.96296],[14.37653,56.98119],[14.36698,56.98144],[14.36818,56.99306],[14.37904,56.99968],[14.34941,57.00324],[14.35225,57.01152],[14.33054,57.02335],[14.338,57.0558],[14.35992,57.05766],[14.35767,57.09646],[14.33738,57.11269],[14.36058,57.12025],[14.34812,57.14483],[14.3623,57.1506],[14.41259,57.15537],[14.42416,57.14351],[14.4329,57.15246],[14.44341,57.15116],[14.44957,57.16297],[14.4872,57.15201],[14.50965,57.16317],[14.53868,57.16068],[14.55701,57.18762],[14.61087,57.18065],[14.60678,57.20441],[14.65614,57.20298],[14.65513,57.20874],[14.75043,57.22814],[14.81074,57.22025],[14.83657,57.20201],[14.87133,57.19803],[14.89103,57.17688],[14.88419,57.16736],[14.89222,57.16393],[14.90232,57.13568],[14.92416,57.13332],[14.99912,57.14218],[15.01117,57.16405],[15.03793,57.16307],[15.08077,57.19623],[15.12672,57.19037],[15.14573,57.17461],[15.15609,57.19445],[15.14955,57.21518],[15.12117,57.22952],[15.13196,57.23856],[15.15703,57.22544],[15.18113,57.22492],[15.18367,57.21315],[15.20008,57.20759],[15.23398,57.22964],[15.24153,57.22068],[15.30244,57.22428],[15.31304,57.21652],[15.31813,57.22504],[15.3348,57.22842],[15.40157,57.22601],[15.51377,57.20087],[15.52768,57.23362],[15.45752,57.26995],[15.48225,57.27869],[15.47023,57.29122],[15.46994,57.30647],[15.51319,57.30742],[15.51325,57.33034],[15.52165,57.33874],[15.50988,57.35069],[15.50937,57.36152],[15.51801,57.36373],[15.49515,57.37408],[15.52404,57.3844],[15.52039,57.40083],[15.52915,57.40638],[15.49778,57.41248],[15.50496,57.45725],[15.51184,57.45634],[15.50844,57.44799],[15.51213,57.45627],[15.5524,57.46825],[15.5969,57.43492],[15.61391,57.44117],[15.62251,57.48721],[15.65455,57.50188],[15.61721,57.5417],[15.57651,57.5479],[15.63087,57.5931],[15.64156,57.58977],[15.66567,57.59929],[15.63094,57.6043],[15.58448,57.63638],[15.50295,57.66127],[15.4895,57.67352],[15.4397,57.68495],[15.41959,57.70707],[15.3565,57.70664],[15.33331,57.6996],[15.28253,57.71496],[15.25685,57.70624],[15.17556,57.71107],[15.17721,57.70465],[15.12816,57.71678],[15.11972,57.74395],[15.08869,57.77278],[15.07383,57.80621],[15.06774,57.82228],[15.07794,57.83859],[15.03801,57.85911],[15.02252,57.88919],[14.99425,57.90665],[15.0127,57.92421],[14.9866,57.94231],[15.01801,57.95827],[15.00924,57.98737],[15.06664,57.9853],[15.08128,57.99895],[15.06372,58.02525],[15.02765,58.04969],[15.03884,58.05673],[15.00389,58.11328],[14.97579,58.1337],[14.98592,58.14938],[14.92697,58.13428],[14.89213,58.13776],[14.89232,58.12387],[14.91678,58.12024],[14.91489,58.1112],[14.89729,58.11177],[14.88654,58.09886],[14.89778,58.08533],[14.88349,58.09108],[14.80878,58.08269],[14.76564,58.08614],[14.75923,58.10382],[14.64354,58.09571],[14.54964,58.10514],[14.46827,58.13109],[14.41773,58.19107],[14.31426,58.13178],[14.20568,58.1353],[14.16866,58.12835],[14.12877,58.14633],[14.11863,58.12118],[14.12203,58.1001],[14.10766,58.0817],[14.11631,58.07534],[14.06459,58.03892],[14.06953,58.02506],[13.96294,58.00783],[13.94889,58.03426],[13.86892,58.05094],[13.86523,58.0412],[13.80501,58.05553],[13.7916,58.04768],[13.79624,58.05408],[13.79003,58.05596],[13.77324,58.04824],[13.76624,58.036],[13.77177,58.02422],[13.75285,58.02532],[13.77245,58.01992],[13.77373,58.00644],[13.75246,58.00849],[13.75753,58.00067],[13.74879,57.9938],[13.73318,57.99816],[13.72067,57.99168],[13.72761,57.98853],[13.71927,57.97606],[13.68761,57.97706],[13.71245,57.96575],[13.72905,57.93127],[13.7413,57.94035],[13.76585,57.93773],[13.7712,57.92595],[13.78927,57.92215],[13.79195,57.90925],[13.76147,57.89339],[13.76636,57.87843],[13.74218,57.86533],[13.73146,57.84529],[13.73764,57.81706],[13.74645,57.81164],[13.7472,57.77748],[13.75388,57.77344],[13.7143,57.73064],[13.72969,57.71838],[13.6942,57.70574],[13.72249,57.69169],[13.72482,57.66943],[13.70763,57.63829],[13.67154,57.62753],[13.66424,57.61505],[13.66887,57.5945],[13.67914,57.59524],[13.67162,57.58702],[13.68659,57.57637],[13.68857,57.55829],[13.66878,57.53824],[13.61005,57.51206],[13.5832,57.47554],[13.5313,57.43045],[13.5142,57.42821],[13.5043,57.41422],[13.51548,57.41023],[13.5116,57.39822],[13.48186,57.39322],[13.46842,57.37127],[13.43565,57.36905],[13.43302,57.34904],[13.38782,57.34104],[13.36871,57.32155],[13.28213,57.30745],[13.28743,57.28269],[13.26191,57.24923],[13.24297,57.25974],[13.19929,57.25035],[13.18794,57.23658],[13.19406,57.22741],[13.15146,57.17805],[13.07707,57.12759]],[[13.1489,57.04348],[13.15043,57.04424],[13.15059,57.04414],[13.1489,57.04348]],[[13.14989,57.04286],[13.15131,57.04369],[13.15157,57.04353],[13.14989,57.04286]],[[13.15016,57.04269],[13.15173,57.04342],[13.15186,57.04334],[13.15016,57.04269]],[[13.62681,56.99674],[13.62726,56.99954],[13.62777,56.99717],[13.62681,56.99674]],[[15.63357,57.60254],[15.63216,57.60398],[15.63406,57.60287],[15.63357,57.60254]]],[[[13.19419,57.0551],[13.20024,57.05382],[13.20666,57.05661],[13.2015,57.05796],[13.19419,57.0551]]],[[[13.63652,57.59409],[13.64929,57.59374],[13.66009,57.60613],[13.65374,57.6084],[13.63652,57.59409]],[[13.64706,57.60137],[13.64708,57.60212],[13.64884,57.6022],[13.64706,57.60137]]],[[[14.14184,57.01006],[14.14098,57.00836],[14.14233,57.0097],[14.14184,57.01006]]]]}},{"type":"Feature","properties":{"name":"Kalmar län","osm_relation_id":54417},"geometry":{"type":"MultiPolygon","coordinates":[[[[15.33737,56.48909],[15.36468,56.48214],[15.36677,56.49258],[15.38648,56.50062],[15.43884,56.49433],[15.44704,56.4825],[15.4685,56.48731],[15.50534,56.47405],[15.52388,56.50249],[15.58565,56.49529],[15.58594,56.48454],[15.59923,56.47205],[15.63601,56.45708],[15.65677,56.46195],[15.67737,56.42496],[15.73579,56.41452],[15.80701,56.34183],[15.84185,56.32275],[15.9096,56.3148],[15.94268,56.31961],[15.9702,56.31401],[15.97915,56.30089],[16.01163,56.29741],[16.01813,56.31327],[16.04234,56.32273],[16.22368,56.30529],[16.21948,55.91413],[16.61003,56.02809],[16.75369,56.10228],[16.80621,56.14974],[16.88503,56.25873],[16.92095,56.31929],[16.93199,56.36427],[16.98435,56.45518],[17.05637,56.54265],[17.07443,56.60429],[17.10081,56.65688],[17.17216,56.7264],[17.21389,56.78032],[17.42443,57.11368],[17.44341,57.17594],[17.49464,57.2372],[17.51495,57.27744],[17.51556,57.33987],[17.46684,57.43305],[17.25163,57.61498],[17.27071,57.65327],[17.27521,57.69492],[17.23469,57.82561],[17.35303,57.99956],[16.89612,58.00429],[16.82081,58.02674],[16.81226,58.00013],[16.80421,57.99729],[16.78886,58.00407],[16.74742,57.9943],[16.74316,58.00048],[16.72744,57.98487],[16.68221,57.9992],[16.65786,57.99262],[16.62747,58.00279],[16.63107,58.01194],[16.59924,58.03658],[16.60335,58.0466],[16.59254,58.05097],[16.60688,58.05307],[16.56227,58.08927],[16.57037,58.09786],[16.55071,58.1093],[16.53251,58.1162],[16.49084,58.08888],[16.46487,58.09879],[16.45687,58.11213],[16.42915,58.11336],[16.41075,58.13071],[16.36339,58.13013],[16.33254,58.11725],[16.26478,58.14244],[16.24074,58.136],[16.20361,58.10458],[16.17745,58.11021],[16.1627,58.08961],[16.17824,58.0644],[16.14921,58.06183],[16.1285,58.08559],[16.06989,58.06992],[16.02722,58.07372],[16.00692,58.08792],[15.98803,58.07644],[16.01604,58.06064],[16.01691,58.05216],[15.99691,58.0362],[15.99549,58.02197],[16.02472,58.01106],[16.04978,57.98767],[16.09274,57.97824],[16.05311,57.96123],[16.04633,57.96493],[16.01899,57.94373],[16.02936,57.92121],[16.06397,57.89899],[16.05503,57.89379],[16.06244,57.87334],[15.96462,57.82357],[15.94417,57.80331],[15.89558,57.82964],[15.85365,57.82873],[15.82234,57.81656],[15.76757,57.85163],[15.67711,57.85989],[15.63953,57.84893],[15.59909,57.85366],[15.60805,57.83057],[15.54235,57.79017],[15.55421,57.7726],[15.43058,57.74502],[15.45248,57.73235],[15.44057,57.7274],[15.44633,57.71853],[15.42054,57.70353],[15.43912,57.68523],[15.58448,57.63638],[15.63094,57.6043],[15.66567,57.59929],[15.64156,57.58977],[15.63087,57.5931],[15.57651,57.5479],[15.61721,57.5417],[15.65455,57.50188],[15.62251,57.48721],[15.61391,57.44117],[15.5969,57.43492],[15.5524,57.46825],[15.51213,57.45627],[15.51181,57.45213],[15.50844,57.44799],[15.51184,57.45634],[15.50496,57.45725],[15.49778,57.41248],[15.52915,57.40638],[15.52039,57.40083],[15.52404,57.3844],[15.49515,57.37408],[15.51801,57.36373],[15.50937,57.36152],[15.50988,57.35069],[15.52165,57.33874],[15.51325,57.33034],[15.51319,57.30742],[15.46994,57.30647],[15.47023,57.29122],[15.48225,57.27869],[15.45759,57.26969],[15.52768,57.23362],[15.51276,57.20396],[15.52702,57.19203],[15.55521,57.18893],[15.56234,57.16463],[15.55131,57.14729],[15.57583,57.14869],[15.61398,57.13031],[15.64011,57.12861],[15.6414,57.11096],[15.68015,57.08467],[15.72127,57.07551],[15.73371,57.05642],[15.77948,57.03217],[15.8256,56.99551],[15.83614,56.97419],[15.83527,56.95625],[15.83368,56.94351],[15.7992,56.91061],[15.70109,56.91524],[15.66687,56.90277],[15.59564,56.92575],[15.58434,56.92086],[15.54174,56.92743],[15.52017,56.91406],[15.51928,56.90065],[15.54624,56.89056],[15.55619,56.87406],[15.53773,56.86174],[15.55256,56.83841],[15.55314,56.8226],[15.53844,56.80581],[15.48994,56.79537],[15.44737,56.79725],[15.44485,56.77904],[15.36829,56.78065],[15.36084,56.75797],[15.3843,56.74647],[15.39222,56.72049],[15.42506,56.71319],[15.4098,56.6822],[15.42401,56.67125],[15.40009,56.65623],[15.41915,56.63949],[15.36714,56.6023],[15.3917,56.58343],[15.37901,56.56108],[15.38429,56.55353],[15.37054,56.55433],[15.36729,56.56739],[15.35923,56.56638],[15.35716,56.55955],[15.3662,56.55504],[15.35723,56.55308],[15.36021,56.54074],[15.3504,56.5329],[15.35707,56.52357],[15.33737,56.48909]]],[[[15.63216,57.60398],[15.63357,57.60254],[15.63406,57.60287],[15.63216,57.60398]]]]}},{"type":"Feature","properties":{"name":"Kronobergs län","osm_relation_id":54412},"geometry":{"type":"Polygon","coordinates":[[[13.29816,56.82365],[13.31887,56.78224],[13.31712,56.71952],[13.32511,56.70757],[13.30779,56.68547],[13.32827,56.68769],[13.36414,56.6651],[13.39727,56.61574],[13.40253,56.59249],[13.41781,56.57764],[13.43989,56.57126],[13.43999,56.55445],[13.46479,56.51396],[13.44977,56.47218],[13.46458,56.44762],[13.46735,56.43179],[13.4612,56.42778],[13.50053,56.40562],[13.52146,56.41171],[13.54962,56.40437],[13.69635,56.42464],[13.79396,56.4482],[13.87692,56.43678],[13.90175,56.45714],[13.95211,56.46711],[14.0252,56.46792],[14.05624,56.50075],[14.0624,56.52687],[14.09552,56.5327],[14.11899,56.52489],[14.12581,56.50552],[14.14339,56.5075],[14.17987,56.4941],[14.23295,56.49093],[14.27428,56.50657],[14.27602,56.49816],[14.34411,56.48443],[14.43485,56.46976],[14.45763,56.47296],[14.4711,56.46394],[14.59713,56.44373],[14.61519,56.4375],[14.62454,56.42021],[14.67872,56.38723],[14.77919,56.38246],[14.85975,56.35888],[14.90442,56.36135],[14.96542,56.40021],[14.97923,56.43403],[15.00088,56.44564],[15.03315,56.45078],[15.05034,56.43772],[15.04988,56.45209],[15.12463,56.4551],[15.14594,56.43653],[15.18682,56.42799],[15.21448,56.44037],[15.22001,56.45091],[15.20876,56.45949],[15.26437,56.471],[15.28683,56.4567],[15.32032,56.45551],[15.36467,56.48213],[15.33737,56.48909],[15.35707,56.52357],[15.3504,56.5329],[15.36021,56.54074],[15.35723,56.55308],[15.3662,56.55504],[15.35716,56.55955],[15.35923,56.56638],[15.36729,56.56739],[15.37054,56.55433],[15.38429,56.55353],[15.37901,56.56108],[15.3917,56.58343],[15.36714,56.6023],[15.41915,56.63949],[15.40009,56.65623],[15.42401,56.67125],[15.4098,56.6822],[15.4203,56.69824],[15.41838,56.71055],[15.42512,56.71052],[15.39222,56.72049],[15.3843,56.74647],[15.36084,56.75797],[15.36829,56.78065],[15.44485,56.77904],[15.44737,56.79725],[15.48994,56.79537],[15.53844,56.80581],[15.55314,56.8226],[15.55256,56.83841],[15.53773,56.86174],[15.55619,56.87406],[15.54624,56.89056],[15.51928,56.90065],[15.52017,56.91406],[15.54174,56.92743],[15.58434,56.92086],[15.59564,56.92575],[15.66687,56.90277],[15.70109,56.91524],[15.7992,56.91061],[15.83368,56.94351],[15.83614,56.97419],[15.81185,57.00782],[15.73371,57.05642],[15.72127,57.07551],[15.68924,57.08006],[15.6414,57.11096],[15.64011,57.12861],[15.61398,57.13031],[15.57583,57.14869],[15.55131,57.14729],[15.56234,57.16463],[15.55521,57.18893],[15.54669,57.18522],[15.48179,57.21188],[15.38038,57.22693],[15.3348,57.22842],[15.31813,57.22504],[15.31304,57.21652],[15.30244,57.22428],[15.24229,57.22059],[15.23398,57.22964],[15.20008,57.20759],[15.18367,57.21315],[15.18113,57.22492],[15.15703,57.22544],[15.13196,57.23856],[15.12117,57.22952],[15.14955,57.21518],[15.15609,57.19445],[15.14573,57.17461],[15.12672,57.19037],[15.08077,57.19623],[15.03793,57.16307],[15.01117,57.16405],[14.99912,57.14218],[14.92416,57.13332],[14.90232,57.13568],[14.89222,57.16393],[14.88419,57.16736],[14.89103,57.17688],[14.87133,57.19803],[14.83657,57.20201],[14.81074,57.22025],[14.75043,57.22814],[14.65513,57.20874],[14.65614,57.20298],[14.60678,57.20441],[14.61087,57.18065],[14.55701,57.18762],[14.53868,57.16068],[14.50965,57.16317],[14.4872,57.15201],[14.44957,57.16297],[14.44341,57.15116],[14.4329,57.15246],[14.42442,57.14354],[14.41259,57.15537],[14.34812,57.14483],[14.36058,57.12025],[14.33738,57.11269],[14.35767,57.09646],[14.35992,57.05766],[14.338,57.0558],[14.33054,57.02335],[14.35225,57.01152],[14.34941,57.00324],[14.37904,56.99968],[14.36818,56.99306],[14.36698,56.98144],[14.37653,56.98119],[14.39492,56.96296],[14.37585,56.93188],[14.34562,56.91341],[14.32323,56.88194],[14.25584,56.88674],[14.22844,56.90828],[14.22082,56.93568],[14.20929,56.94525],[14.21613,56.95496],[14.19177,56.95781],[14.18035,56.98871],[14.1531,56.99842],[14.15824,57.01321],[14.15239,57.02941],[14.09481,57.0211],[14.10019,57.03488],[14.09101,57.04112],[14.0168,57.05182],[13.98999,57.02935],[13.97569,57.04149],[13.92477,57.04059],[13.9243,57.02942],[13.91032,57.01842],[13.87442,57.01839],[13.85843,56.99946],[13.84295,56.99788],[13.80249,57.02877],[13.76223,57.02581],[13.75456,57.02883],[13.76024,57.03563],[13.74688,57.03852],[13.71262,57.01796],[13.69142,56.97604],[13.6807,56.9721],[13.69357,56.96354],[13.68155,56.9422],[13.6889,56.9371],[13.68742,56.92681],[13.66203,56.91355],[13.61817,56.90859],[13.58227,56.89007],[13.52988,56.89129],[13.48727,56.87106],[13.44369,56.8798],[13.43222,56.86904],[13.40507,56.87059],[13.35896,56.85729],[13.33463,56.87416],[13.33791,56.83824],[13.29816,56.82365]],[[14.14098,57.00836],[14.14184,57.01006],[14.14233,57.0097],[14.14098,57.00836]]]}},{"type":"Feature","properties":{"name":"Norrbottens län","osm_relation_id":52824},"geometry":{"type":"Polygon","coordinates":[[[15.37723,66.48431],[15.45394,66.34535],[15.7714,66.29082],[16.23234,66.14069],[16.52919,66.05359],[16.77195,66.03203],[17.00066,65.94491],[17.67562,65.65622],[17.85142,65.6236],[18.0311,65.60253],[18.03396,65.58767],[18.0723,65.57671],[18.10157,65.59414],[18.14721,65.58873],[18.14432,65.57654],[18.17796,65.57654],[18.17798,65.56615],[18.19523,65.55488],[18.34205,65.4939],[18.42556,65.49681],[18.50329,65.47482],[18.52197,65.45202],[18.5802,65.4401],[18.71952,65.4369],[18.74885,65.42263],[18.74434,65.41353],[18.75123,65.4046],[18.81127,65.38725],[18.83392,65.37141],[18.86946,65.37297],[18.93305,65.34661],[19.01531,65.33079],[19.01954,65.31368],[19.03317,65.3074],[19.09672,65.30511],[19.23189,65.26588],[19.27326,65.24212],[19.25022,65.24031],[19.24156,65.22345],[19.24947,65.21478],[19.33942,65.18672],[19.34443,65.18237],[19.33844,65.17956],[19.39035,65.14282],[19.43081,65.15331],[19.43515,65.14871],[19.60757,65.19864],[19.69572,65.25462],[19.71155,65.25748],[19.70381,65.25974],[19.89482,65.38095],[20.10996,65.34571],[20.80554,65.20928],[21.2659,65.16349],[21.31877,65.1359],[21.55592,65.05969],[21.94545,64.90236],[22.18266,64.97451],[22.49896,65.08643],[22.60555,65.08053],[22.72011,65.08558],[22.81363,65.09905],[22.91165,65.12464],[22.99228,65.15941],[23.04388,65.19499],[23.08043,65.24109],[23.08975,65.28446],[23.68451,65.32751],[23.91203,65.36541],[24.13275,65.51537],[24.17769,65.66036],[24.16487,65.69549],[24.17218,65.72528],[24.12755,65.77838],[24.13374,65.79668],[24.15532,65.8155],[24.14461,65.84098],[24.12556,65.85778],[24.15294,65.86258],[24.11555,65.89866],[24.10991,65.91337],[24.11793,65.92674],[24.08844,65.93122],[24.05366,65.95152],[24.0397,65.96907],[24.0529,65.97459],[24.04537,66.00196],[23.97539,66.05766],[23.93833,66.07672],[23.94514,66.1073],[23.93577,66.11239],[23.94077,66.12085],[23.91405,66.13613],[23.92998,66.14962],[23.92066,66.1599],[23.83112,66.17038],[23.72805,66.19516],[23.73322,66.20623],[23.69423,66.22851],[23.7011,66.24294],[23.66744,66.25964],[23.67314,66.27294],[23.6456,66.30141],[23.65726,66.31781],[23.65659,66.35197],[23.68922,66.38742],[23.66798,66.39779],[23.64343,66.42459],[23.65022,66.45498],[23.68807,66.47334],[23.71928,66.47681],[23.71435,66.49296],[23.73027,66.50872],[23.74354,66.50377],[23.79512,66.51724],[23.7866,66.53669],[23.85799,66.55788],[23.8782,66.58286],[23.87601,66.60206],[23.88511,66.61509],[23.86996,66.62972],[23.86471,66.65489],[23.87463,66.67144],[23.88688,66.67548],[23.89492,66.71102],[23.90779,66.72112],[23.87658,66.7535],[23.87939,66.76292],[23.91574,66.77187],[23.91113,66.79541],[23.9569,66.78245],[23.98097,66.78559],[23.97655,66.79788],[23.98761,66.80248],[23.99535,66.8212],[23.93621,66.88356],[23.91581,66.88739],[23.86467,66.91873],[23.86179,66.95435],[23.82853,66.96124],[23.81749,66.97915],[23.73769,67.01841],[23.71511,67.03462],[23.71311,67.04397],[23.67062,67.06682],[23.65505,67.10344],[23.5514,67.171],[23.55911,67.1813],[23.58794,67.1907],[23.58505,67.19848],[23.59587,67.20754],[23.54626,67.22519],[23.56228,67.2373],[23.55151,67.24824],[23.56946,67.25215],[23.56223,67.26206],[23.60652,67.2738],[23.72311,67.28268],[23.74883,67.32174],[23.77465,67.33743],[23.759,67.34914],[23.73947,67.34961],[23.72966,67.36866],[23.73544,67.37862],[23.71706,67.38592],[23.75177,67.40789],[23.75155,67.41977],[23.76364,67.42979],[23.70992,67.44573],[23.66778,67.44299],[23.54751,67.4612],[23.4966,67.44604],[23.41188,67.46699],[23.39414,67.48539],[23.40534,67.50105],[23.43196,67.50738],[23.43605,67.51789],[23.48386,67.538],[23.45608,67.56199],[23.50755,67.56336],[23.53971,67.57893],[23.54491,67.58445],[23.53843,67.60368],[23.55898,67.61996],[23.54168,67.62381],[23.53374,67.6371],[23.49237,67.66427],[23.49818,67.68024],[23.4896,67.68817],[23.49257,67.69516],[23.4772,67.70166],[23.48389,67.71169],[23.4784,67.72396],[23.48726,67.72988],[23.47504,67.73913],[23.49186,67.75486],[23.48317,67.77387],[23.49411,67.79107],[23.47269,67.81641],[23.48228,67.82733],[23.4777,67.84283],[23.48798,67.84635],[23.49433,67.86403],[23.51732,67.88481],[23.55254,67.89829],[23.57952,67.89297],[23.64314,67.91667],[23.64482,67.92651],[23.665,67.94089],[23.65051,67.95141],[23.65137,67.96033],[23.57362,67.97241],[23.53982,67.99124],[23.53441,68.00587],[23.46899,68.01962],[23.46576,68.03045],[23.44785,68.03616],[23.38863,68.0477],[23.38631,68.05705],[23.37132,68.0612],[23.36061,68.08512],[23.33739,68.09971],[23.3251,68.11755],[23.33074,68.12266],[23.30628,68.14928],[23.26035,68.15692],[23.16986,68.13307],[23.15239,68.13673],[23.1401,68.1553],[23.147,68.17156],[23.14153,68.18146],[23.16208,68.19787],[23.14193,68.20342],[23.14193,68.21856],[23.15195,68.23194],[23.14349,68.24683],[23.07719,68.26695],[23.06398,68.28097],[23.0701,68.30029],[23.05663,68.30738],[22.98753,68.3199],[22.97171,68.33226],[22.91608,68.33381],[22.89415,68.34845],[22.84526,68.3607],[22.83436,68.36928],[22.84539,68.38308],[22.79978,68.39358],[22.73429,68.38507],[22.72473,68.3945],[22.68665,68.39988],[22.69183,68.40569],[22.67851,68.41158],[22.64536,68.41706],[22.6392,68.4343],[22.57241,68.42217],[22.55567,68.43414],[22.46829,68.4413],[22.43347,68.46483],[22.4022,68.46594],[22.34261,68.44465],[22.34895,68.46357],[22.3407,68.46928],[22.34812,68.48209],[22.25208,68.48236],[22.22237,68.47299],[22.19274,68.48022],[22.15246,68.47011],[22.12742,68.47186],[22.11545,68.48214],[22.04344,68.47963],[22.01099,68.50001],[21.996,68.52171],[22.00629,68.53307],[21.88894,68.58438],[21.84213,68.59122],[21.77698,68.58555],[21.71743,68.5903],[21.7006,68.59666],[21.69585,68.61049],[21.71213,68.61745],[21.70951,68.62546],[21.62834,68.65429],[21.62371,68.66234],[21.42981,68.69159],[21.41268,68.71093],[21.4221,68.71514],[21.40561,68.7357],[21.41255,68.74836],[21.39042,68.76477],[21.29899,68.76239],[21.23665,68.81296],[21.18427,68.82523],[21.12862,68.85358],[20.99667,68.89675],[20.98069,68.89126],[20.93277,68.89862],[20.87805,68.89352],[20.9034,68.90028],[20.88023,68.91859],[20.85185,68.92377],[20.84354,68.93646],[20.89235,68.94167],[20.91191,68.95722],[20.91167,68.96874],[20.87994,68.98665],[20.83466,68.99622],[20.80812,69.02006],[20.70274,69.04448],[20.62754,69.04584],[20.54864,69.05997],[20.06005,69.04576],[20.30659,68.92618],[20.33587,68.80231],[20.20284,68.66592],[20.05225,68.59107],[19.9375,68.55794],[20.02588,68.53081],[20.22654,68.49081],[19.97796,68.38816],[19.9214,68.35601],[18.9838,68.51696],[18.62122,68.50696],[18.40569,68.58188],[18.12592,68.53651],[18.10109,68.40604],[18.15135,68.19879],[17.89976,67.96937],[17.66475,68.03838],[17.28152,68.11881],[17.18051,68.05046],[16.73812,67.91421],[16.55628,67.64719],[16.49488,67.59446],[16.40757,67.53403],[16.158,67.51916],[16.08983,67.43528],[16.4041,67.20497],[16.38776,67.04546],[16.19402,66.98259],[16.03876,66.91245],[15.62137,66.59434],[15.45106,66.52397],[15.37723,66.48431]],[[19.98679,65.37712],[19.99964,65.37267],[20.03656,65.36769],[20.02754,65.36135],[19.98679,65.37712]]]}},{"type":"Feature","properties":{"name":"Skåne län","osm_relation_id":54409},"geometry":{"type":"Polygon","coordinates":[[[12.11746,56.38316],[12.32587,56.3025],[12.3404,56.27063],[12.38839,56.24019],[12.36519,56.2148],[12.45932,56.15125],[12.56015,56.10567],[12.65165,56.04814],[12.6566,56.02311],[12.64639,55.92584],[12.67767,55.89312],[12.69873,55.83625],[12.84575,55.69858],[12.89405,55.64358],[12.8802,55.61357],[12.72828,55.54027],[12.71412,55.4886],[12.60942,55.43112],[12.6408,55.33667],[12.69446,55.34977],[12.69608,55.32461],[12.71173,55.30206],[12.92297,55.14837],[12.9966,55.1683],[13.13313,55.16013],[13.25237,55.14232],[13.41293,55.13951],[13.78285,55.21813],[13.85254,55.21806],[13.9897,55.18456],[14.1685,55.1777],[14.70173,55.60628],[14.67711,55.64495],[14.62748,55.69665],[14.59533,55.755],[14.53275,56.01201],[14.5321,56.03688],[14.55381,56.06634],[14.55586,56.08294],[14.57832,56.09749],[14.58625,56.12917],[14.56664,56.22412],[14.53116,56.22344],[14.5185,56.21417],[14.46751,56.23925],[14.46615,56.22469],[14.44087,56.22905],[14.42707,56.24758],[14.43548,56.25337],[14.42628,56.25985],[14.43077,56.28956],[14.40546,56.29422],[14.40872,56.3042],[14.39015,56.30133],[14.41284,56.36702],[14.41883,56.36713],[14.41378,56.40022],[14.47251,56.40824],[14.51455,56.45999],[14.34411,56.48443],[14.27602,56.49816],[14.27428,56.50657],[14.23295,56.49093],[14.17987,56.4941],[14.14339,56.5075],[14.12581,56.50552],[14.11899,56.52489],[14.09145,56.53282],[14.0624,56.52687],[14.05624,56.50075],[14.0252,56.46792],[13.95211,56.46711],[13.90175,56.45714],[13.87692,56.43678],[13.79396,56.4482],[13.69635,56.42464],[13.54262,56.40379],[13.52146,56.41171],[13.50053,56.40562],[13.4612,56.42778],[13.38559,56.41451],[13.34667,56.39051],[13.30481,56.38525],[13.2515,56.35767],[13.25424,56.35096],[13.2288,56.33248],[13.19599,56.32414],[13.18117,56.34013],[13.14864,56.35287],[12.99205,56.35723],[12.94981,56.36932],[12.96799,56.38904],[12.95285,56.39212],[12.96858,56.41139],[12.95776,56.4134],[12.96576,56.4277],[12.9524,56.43115],[12.95774,56.43996],[12.89555,56.4495],[12.79711,56.55217],[12.24085,56.55722],[12.11746,56.38316]]]}},{"type":"Feature","properties":{"name":"Stockholms län","osm_relation_id":54391},"geometry":{"type":"Polygon","coordinates":[[[17.24367,59.21458],[17.25151,59.20809],[17.24442,59.20415],[17.24809,59.1993],[17.26257,59.19666],[17.26895,59.18261],[17.2572,59.1802],[17.29715,59.16434],[17.32069,59.14011],[17.31208,59.07926],[17.32595,59.07018],[17.31921,59.0491],[17.33373,59.03184],[17.34686,59.02909],[17.34334,59.02514],[17.37517,58.98236],[17.43924,58.98125],[17.44329,58.99502],[17.5119,58.98127],[17.55448,58.98267],[17.54292,58.96781],[17.55925,58.95181],[17.62532,58.93499],[17.63624,58.90834],[17.63197,58.90321],[17.65464,58.89339],[17.65133,58.87526],[17.66071,58.86652],[17.65213,58.85998],[17.66963,58.82624],[17.71785,58.8153],[17.72521,58.79794],[17.7867,58.77789],[17.79531,58.67143],[17.95122,58.48889],[18.17851,58.54341],[18.8236,58.79874],[19.08566,58.92959],[19.45547,59.15778],[19.7876,59.27743],[19.83919,59.30973],[19.87144,59.34035],[19.9011,59.39789],[20.00838,59.54746],[19.0832,60.19168],[19.13214,60.30071],[18.90585,60.27804],[18.68361,60.23933],[18.6786,60.23127],[18.69665,60.20687],[18.696,60.20071],[18.67273,60.19462],[18.69299,60.1761],[18.69309,60.16568],[18.67702,60.167],[18.6768,60.15509],[18.59317,60.16335],[18.51421,60.16067],[18.51277,60.14578],[18.49342,60.13825],[18.49198,60.10388],[18.45081,60.0772],[18.44479,60.05861],[18.38845,60.04123],[18.47336,60.0043],[18.42722,59.98186],[18.42337,59.95633],[18.3949,59.95549],[18.38389,59.94568],[18.37804,59.93097],[18.39378,59.91923],[18.4045,59.89439],[18.36314,59.87273],[18.36474,59.86451],[18.27341,59.85059],[18.24871,59.83333],[18.13069,59.81908],[18.10436,59.76699],[18.10888,59.75911],[18.08517,59.73856],[18.05089,59.74361],[18.04349,59.73391],[18.02035,59.74533],[18.00092,59.73694],[17.99903,59.72864],[17.98393,59.72922],[17.94656,59.71106],[17.89476,59.71058],[17.83657,59.69217],[17.83293,59.68068],[17.81601,59.67798],[17.77834,59.69063],[17.75269,59.66051],[17.72836,59.66352],[17.7223,59.68405],[17.65944,59.69396],[17.62954,59.69421],[17.62678,59.67485],[17.57575,59.66213],[17.58824,59.64696],[17.53961,59.63526],[17.51614,59.6236],[17.51356,59.61155],[17.52796,59.58909],[17.57845,59.55928],[17.58108,59.54974],[17.56856,59.5404],[17.54522,59.54427],[17.51639,59.51796],[17.46482,59.5074],[17.50243,59.45926],[17.50435,59.44054],[17.45311,59.44653],[17.43571,59.44174],[17.42621,59.42787],[17.43301,59.39583],[17.4151,59.38347],[17.41092,59.36622],[17.42561,59.35135],[17.33505,59.35174],[17.35058,59.31993],[17.34406,59.31128],[17.34779,59.27906],[17.31037,59.26633],[17.30389,59.25661],[17.30893,59.25213],[17.27482,59.24555],[17.26157,59.2226],[17.24367,59.21458]]]}},{"type":"Feature","properties":{"name":"Södermanlands län","osm_relation_id":54386},"geometry":{"type":"Polygon","coordinates":[[[15.61667,59.02304],[15.63112,59.01128],[15.65572,59.01155],[15.65031,58.99614],[15.66531,58.98203],[15.72256,58.98859],[15.74121,58.95097],[15.7804,58.96922],[15.78221,58.98482],[15.82075,59.01843],[15.8721,58.99953],[15.86545,58.99056],[15.88339,58.98752],[15.88244,58.97915],[15.91153,58.96241],[16.08221,58.91954],[16.10218,58.88579],[16.18025,58.85848],[16.19164,58.83904],[16.26361,58.83223],[16.28932,58.80071],[16.3103,58.79154],[16.29518,58.77608],[16.30459,58.76833],[16.32745,58.77957],[16.36864,58.75284],[16.37717,58.70815],[16.3858,58.70359],[16.42702,58.6972],[16.5845,58.69793],[16.62827,58.68993],[16.63919,58.67552],[16.64884,58.68188],[16.68978,58.67562],[16.75843,58.63019],[16.74995,58.6271],[16.82738,58.59427],[16.89009,58.60099],[16.97243,58.58099],[17.06983,58.59066],[17.13093,58.55007],[17.1465,58.53267],[17.14899,58.50334],[17.51603,58.41083],[17.56928,58.39898],[17.95122,58.48889],[17.79531,58.67143],[17.7867,58.77789],[17.72521,58.79794],[17.71785,58.8153],[17.66963,58.82624],[17.65213,58.85998],[17.66071,58.86652],[17.65133,58.87526],[17.65464,58.89339],[17.63197,58.90321],[17.63624,58.90834],[17.62532,58.93499],[17.55925,58.95181],[17.54292,58.96781],[17.55448,58.98267],[17.5119,58.98127],[17.44329,58.99502],[17.43924,58.98125],[17.37517,58.98236],[17.34334,59.02514],[17.34686,59.02909],[17.33373,59.03184],[17.31921,59.0491],[17.32595,59.07018],[17.31208,59.07926],[17.32069,59.14011],[17.29715,59.16434],[17.2572,59.1802],[17.26895,59.18261],[17.26257,59.19666],[17.24809,59.1993],[17.24442,59.20415],[17.25151,59.20809],[17.24367,59.21458],[17.26157,59.2226],[17.27482,59.24555],[17.30893,59.25213],[17.30389,59.25661],[17.31037,59.26633],[17.34779,59.27906],[17.34406,59.31128],[17.35058,59.31993],[17.33505,59.35174],[17.42561,59.35135],[17.41092,59.36622],[17.4151,59.38347],[17.38336,59.39685],[17.38908,59.41407],[17.36496,59.41663],[17.35391,59.43778],[17.31119,59.43768],[17.20782,59.4626],[17.15904,59.48534],[17.15006,59.50782],[17.11784,59.52627],[17.08388,59.53071],[17.064,59.511],[17.04598,59.51628],[17.03016,59.5084],[16.96591,59.52035],[16.9506,59.49396],[16.90628,59.47958],[16.88451,59.47996],[16.8338,59.4984],[16.7569,59.50203],[16.71138,59.48806],[16.66558,59.49228],[16.41073,59.45976],[16.37151,59.46729],[16.3227,59.45288],[16.25426,59.45246],[16.24514,59.41565],[16.24968,59.40954],[16.30668,59.39939],[16.27365,59.38853],[16.26648,59.36195],[16.21033,59.35996],[16.15768,59.34624],[16.07232,59.35197],[16.03513,59.36926],[15.93832,59.34139],[15.94247,59.32275],[15.91119,59.31563],[15.91225,59.30547],[15.90251,59.29636],[15.88056,59.30309],[15.87712,59.28018],[15.86811,59.28051],[15.87316,59.28198],[15.86788,59.2901],[15.86482,59.28429],[15.89274,59.23048],[15.76204,59.19792],[15.79821,59.13698],[15.78773,59.13663],[15.7976,59.12288],[15.79084,59.12137],[15.79425,59.10971],[15.70727,59.10101],[15.70108,59.09445],[15.71612,59.0849],[15.71051,59.07742],[15.63991,59.05411],[15.63229,59.03679],[15.64098,59.03453],[15.61667,59.02304]]]}},{"type":"Feature","properties":{"name":"Uppsala län","osm_relation_id":54220},"geometry":{"type":"Polygon","coordinates":[[[16.69197,60.08334],[16.72747,60.04337],[16.71618,60.01086],[16.72365,60.00124],[16.7337,60.00202],[16.73823,59.98287],[16.7892,59.96576],[16.77165,59.96381],[16.76136,59.95115],[16.77679,59.95533],[16.79433,59.94587],[16.80212,59.90868],[16.77778,59.90571],[16.77306,59.89427],[16.79901,59.8815],[16.80051,59.86962],[16.83713,59.86155],[16.801,59.8441],[16.81809,59.83647],[16.79991,59.82485],[16.81121,59.81993],[16.80804,59.81571],[16.76526,59.80248],[16.72753,59.77489],[16.77577,59.74645],[16.78372,59.71855],[16.81595,59.71023],[16.8201,59.69227],[16.85414,59.66764],[16.9213,59.54763],[16.96591,59.52035],[17.03016,59.5084],[17.04598,59.51628],[17.064,59.511],[17.08388,59.53071],[17.11784,59.52627],[17.15006,59.50782],[17.15904,59.48534],[17.20782,59.4626],[17.31119,59.43768],[17.35391,59.43778],[17.36496,59.41663],[17.38908,59.41407],[17.38336,59.39685],[17.4151,59.38347],[17.43301,59.39583],[17.42621,59.42787],[17.43571,59.44174],[17.45311,59.44653],[17.50435,59.44054],[17.50243,59.45926],[17.46482,59.5074],[17.51639,59.51796],[17.54522,59.54427],[17.56856,59.5404],[17.58108,59.54974],[17.57845,59.55928],[17.52796,59.58909],[17.51356,59.61155],[17.51614,59.6236],[17.53961,59.63526],[17.57797,59.6402],[17.59045,59.64976],[17.57448,59.65586],[17.57575,59.66213],[17.62678,59.67485],[17.62954,59.69421],[17.7223,59.68405],[17.72836,59.66352],[17.75269,59.66051],[17.77834,59.69063],[17.81601,59.67798],[17.83293,59.68068],[17.83657,59.69217],[17.89476,59.71058],[17.94656,59.71106],[17.98393,59.72922],[17.99903,59.72864],[18.00092,59.73694],[18.02035,59.74533],[18.04349,59.73391],[18.05089,59.74361],[18.08517,59.73856],[18.10888,59.75911],[18.10436,59.76699],[18.13069,59.81908],[18.25742,59.83511],[18.27341,59.85059],[18.36474,59.86451],[18.36314,59.87273],[18.40321,59.89287],[18.39378,59.91923],[18.37715,59.9364],[18.39028,59.95362],[18.42337,59.95633],[18.42722,59.98186],[18.47336,60.0043],[18.38845,60.04123],[18.44479,60.05861],[18.45081,60.0772],[18.49198,60.10388],[18.49342,60.13825],[18.51277,60.14578],[18.51421,60.16067],[18.59317,60.16335],[18.6768,60.15509],[18.67702,60.167],[18.69309,60.16568],[18.69299,60.1761],[18.67273,60.19462],[18.696,60.20071],[18.69665,60.20687],[18.6786,60.23127],[18.68361,60.23933],[18.90585,60.27804],[19.13335,60.3005],[19.20793,60.58907],[19.13696,60.63677],[19.03437,60.67363],[18.2229,60.81213],[17.95716,60.90691],[17.7095,60.70837],[17.39559,60.68576],[17.38189,60.67694],[17.34893,60.58617],[17.30272,60.5089],[17.29786,60.46482],[17.28783,60.44681],[17.25661,60.42447],[17.25383,60.43521],[17.21764,60.43396],[17.21733,60.41962],[17.1923,60.40412],[17.18908,60.38227],[17.19933,60.37854],[17.19955,60.36575],[17.21361,60.36499],[17.19678,60.34511],[17.19382,60.30081],[17.15755,60.28742],[17.1031,60.28083],[17.1129,60.26932],[17.08241,60.25921],[17.05847,60.27297],[17.00206,60.27492],[16.98052,60.29527],[16.9197,60.28562],[16.90888,60.2815],[16.91216,60.26938],[16.88644,60.25491],[16.88821,60.24451],[16.90491,60.23949],[16.84182,60.21684],[16.80261,60.21212],[16.79947,60.19958],[16.77904,60.18992],[16.70479,60.19509],[16.73363,60.16564],[16.7473,60.13594],[16.7275,60.12087],[16.73524,60.11773],[16.73231,60.11259],[16.70516,60.10896],[16.71417,60.08937],[16.69197,60.08334]]]}},{"type":"Feature","properties":{"name":"Värmlands län","osm_relation_id":54223},"geometry":{"type":"MultiPolygon","coordinates":[[[[11.69113,59.58955],[11.72864,59.51118],[11.75321,59.47937],[11.76095,59.4286],[11.77411,59.41429],[11.77987,59.38646],[11.81625,59.34474],[11.82615,59.23783],[11.92389,59.22461],[11.94511,59.235],[11.94842,59.24967],[12.01351,59.21223],[12.02949,59.21199],[12.03253,59.2014],[12.08457,59.17636],[12.10825,59.19565],[12.09366,59.20084],[12.0822,59.25724],[12.18532,59.24999],[12.21187,59.25343],[12.21463,59.26369],[12.23746,59.25497],[12.26084,59.1945],[12.27395,59.18886],[12.31274,59.19679],[12.31522,59.18874],[12.34709,59.17365],[12.42474,59.19304],[12.4587,59.19285],[12.46247,59.18181],[12.45452,59.17369],[12.42039,59.17494],[12.41508,59.1691],[12.46066,59.1528],[12.45795,59.14458],[12.46849,59.14019],[12.45742,59.13216],[12.54705,59.12584],[12.57511,59.11189],[12.59047,59.12077],[12.58889,59.1289],[12.61909,59.14179],[12.618,59.1536],[12.63008,59.16434],[12.62404,59.17176],[12.65548,59.18611],[12.65449,59.17633],[12.69544,59.17077],[12.71426,59.15085],[12.75455,59.13085],[12.77289,59.05805],[12.77014,59.04382],[12.89963,58.81427],[13.15144,58.75522],[13.1795,58.75557],[13.2532,58.72533],[13.42508,58.74594],[13.33854,58.8124],[13.42422,58.95939],[13.58881,59.05933],[14.04413,59.02865],[14.03309,59.03736],[14.0382,59.04295],[14.142,59.05248],[14.17997,59.04079],[14.22423,59.04546],[14.23172,59.02924],[14.29785,59.01222],[14.34006,59.08409],[14.33757,59.09836],[14.29596,59.12708],[14.30139,59.13592],[14.28956,59.15937],[14.29614,59.19634],[14.28915,59.22714],[14.30833,59.24936],[14.30731,59.28729],[14.33372,59.33041],[14.35537,59.33223],[14.36242,59.36757],[14.37681,59.36863],[14.37854,59.38407],[14.40966,59.41361],[14.46932,59.43969],[14.3908,59.51377],[14.43575,59.54224],[14.47571,59.52906],[14.46135,59.59809],[14.4252,59.66475],[14.43498,59.68396],[14.4,59.7421],[14.40468,59.75644],[14.43471,59.77094],[14.41485,59.82178],[14.42111,59.88533],[14.41221,59.8922],[14.42301,59.90126],[14.39919,59.91276],[14.36641,59.91199],[14.35685,59.92003],[14.36014,59.93361],[14.34052,59.93997],[14.33179,59.95181],[14.45655,59.97301],[14.43704,60.02572],[14.2127,60.09574],[14.19689,60.16328],[14.15762,60.2072],[14.1492,60.23066],[14.02368,60.22884],[14.02291,60.24235],[13.99098,60.25152],[13.95107,60.251],[14.01193,60.19111],[13.96552,60.1752],[13.82797,60.25477],[13.67083,60.40336],[13.54234,60.42247],[13.46808,60.45942],[13.42817,60.51703],[13.27582,60.64445],[13.24877,60.68611],[13.19418,60.68479],[13.19884,60.696],[13.15947,60.7551],[13.08164,60.80582],[12.6987,60.99812],[12.67023,61.056],[12.61034,61.04654],[12.44761,61.05073],[12.22399,61.01308],[12.33279,60.89017],[12.33449,60.85236],[12.39537,60.73389],[12.51102,60.64246],[12.51578,60.60015],[12.58186,60.55091],[12.60688,60.51274],[12.60605,60.40593],[12.54529,60.34735],[12.4988,60.32365],[12.50442,60.28121],[12.54191,60.19338],[12.50064,60.09908],[12.44856,60.03918],[12.39566,60.0156],[12.34114,59.96567],[12.231,59.92752],[12.17429,59.88981],[12.12612,59.89394],[12.05346,59.88594],[11.98522,59.90073],[11.92697,59.88479],[11.91789,59.8731],[11.88442,59.87156],[11.88483,59.85605],[11.83971,59.84078],[11.85334,59.83025],[11.88443,59.825],[11.92602,59.794],[11.93366,59.76019],[11.92303,59.74994],[11.93769,59.72841],[11.93705,59.70047],[11.94468,59.69817],[11.88922,59.69321],[11.85571,59.6483],[11.77889,59.64299],[11.72056,59.62549],[11.69796,59.60878],[11.69113,59.58955]]],[[[14.34352,59.11191],[14.34353,59.11013],[14.34421,59.11124],[14.34352,59.11191]]]]}},{"type":"Feature","properties":{"name":"Västerbottens län","osm_relation_id":52825},"geometry":{"type":"MultiPolygon","coordinates":[[[[14.32599,65.11892],[14.61303,65.00236],[14.69751,64.99049],[14.7143,64.96879],[14.71174,64.96075],[14.75434,64.95431],[14.77853,64.93983],[14.7807,64.92047],[14.77231,64.91355],[14.84138,64.8924],[14.84655,64.88293],[14.83737,64.87815],[14.97393,64.84614],[15.03527,64.79141],[15.02686,64.77915],[15.03291,64.7604],[15.18624,64.74046],[15.26539,64.69991],[15.29118,64.67749],[15.33445,64.66904],[15.34145,64.64671],[15.24045,64.63552],[15.31558,64.62072],[15.37009,64.5837],[15.42773,64.58343],[15.43962,64.5572],[15.52076,64.53215],[15.54317,64.51858],[15.53847,64.50721],[15.55731,64.49619],[15.55337,64.48639],[15.58247,64.45528],[15.57742,64.45453],[15.57952,64.44343],[15.64717,64.44798],[15.63617,64.5196],[15.70437,64.538],[15.74025,64.404],[15.75359,64.40686],[15.8691,64.38198],[15.85356,64.37561],[16.02235,64.3328],[16.01971,64.26909],[16.04255,64.24887],[16.14477,64.26765],[16.16545,64.26123],[16.21925,64.26398],[16.87832,63.95069],[17.33449,63.90768],[17.73344,63.8801],[18.40648,63.99579],[18.43264,63.98899],[18.46501,63.97483],[18.47546,63.95743],[18.46301,63.94429],[18.46489,63.93171],[18.42001,63.93382],[18.40822,63.92155],[18.42623,63.91997],[18.426,63.90898],[18.43956,63.89329],[18.47918,63.86608],[18.47235,63.86381],[18.4855,63.84265],[18.59437,63.82255],[18.68443,63.82034],[18.72194,63.80639],[18.7573,63.81043],[18.80723,63.7885],[18.80071,63.7811],[18.81997,63.77348],[18.90147,63.78259],[18.91479,63.77795],[18.96187,63.76047],[18.95066,63.72897],[18.99711,63.7313],[19.0443,63.68881],[19.18184,63.59843],[19.19086,63.57193],[19.29279,63.46978],[19.28645,63.46341],[19.60776,63.10202],[19.84325,63.13539],[19.97312,63.16805],[20.16357,63.16643],[20.39621,63.3335],[20.69287,63.48518],[20.93621,63.52186],[21.36738,63.63358],[21.42429,63.68177],[21.45028,63.71455],[21.4713,63.80413],[21.46055,63.85249],[21.39706,63.95724],[21.50213,64.04151],[21.85054,64.19882],[21.90856,64.23197],[22.05211,64.36909],[22.07071,64.40289],[22.08045,64.44974],[22.07642,64.48134],[22.06117,64.51209],[21.81681,64.83612],[21.90554,64.89022],[21.94545,64.90236],[21.55592,65.05969],[21.31877,65.1359],[21.2659,65.16349],[20.80554,65.20928],[20.10996,65.34571],[19.89482,65.38095],[19.70381,65.25974],[19.71155,65.25748],[19.69572,65.25462],[19.60757,65.19864],[19.43515,65.14871],[19.43081,65.15331],[19.39035,65.14282],[19.33844,65.17956],[19.34443,65.18237],[19.33942,65.18672],[19.24947,65.21478],[19.24156,65.22345],[19.25022,65.24031],[19.27326,65.24212],[19.23189,65.26588],[19.09672,65.30511],[19.03317,65.3074],[19.01954,65.31368],[19.01531,65.33079],[18.93305,65.34661],[18.86946,65.37297],[18.83392,65.37141],[18.81127,65.38725],[18.75123,65.4046],[18.74434,65.41353],[18.74885,65.42263],[18.71952,65.4369],[18.5802,65.4401],[18.52197,65.45202],[18.50329,65.47482],[18.42556,65.49681],[18.34205,65.4939],[18.19523,65.55488],[18.17798,65.56615],[18.17796,65.57654],[18.14432,65.57654],[18.14721,65.58873],[18.10157,65.59414],[18.0723,65.57671],[18.03396,65.58767],[18.0311,65.60253],[17.85142,65.6236],[17.67562,65.65622],[17.00066,65.94491],[16.77195,66.03203],[16.52919,66.05359],[16.23234,66.14069],[15.7714,66.29082],[15.45394,66.34535],[15.48473,66.28246],[15.03568,66.15356],[14.51629,66.13258],[14.57312,65.95786],[14.5844,65.90134],[14.62548,65.81181],[14.54147,65.70075],[14.49877,65.5213],[14.50683,65.30973],[14.3788,65.24762],[14.32599,65.11892]],[[15.58116,64.45298],[15.58145,64.45329],[15.58174,64.45309],[15.58116,64.45298]]],[[[19.98679,65.37712],[20.02754,65.36135],[20.03656,65.36769],[19.99964,65.37267],[19.98679,65.37712]]]]}},{"type":"Feature","properties":{"name":"Västernorrlands län","osm_relation_id":52827},"geometry":{"type":"MultiPolygon","coordinates":[[[[14.78035,62.4731],[14.78912,62.46605],[14.79322,62.46726],[14.79274,62.47311],[14.78035,62.4731]]],[[[14.78109,62.59077],[14.80959,62.56238],[14.80227,62.5275],[14.8296,62.5084],[14.83047,62.49728],[14.84253,62.48793],[14.84105,62.4724],[14.85042,62.4668],[14.83877,62.45939],[14.7964,62.46454],[14.80123,62.40406],[14.87514,62.40225],[14.86528,62.39078],[14.93951,62.32033],[15.15264,62.24998],[15.2846,62.29295],[15.32612,62.27199],[15.37852,62.29724],[15.50535,62.33863],[15.61316,62.34349],[16.01333,62.25922],[16.23116,62.2343],[16.43534,62.23619],[16.52093,62.23301],[16.63268,62.21424],[16.80141,62.20283],[16.96184,62.16294],[17.06995,62.16392],[17.11692,62.15561],[17.20704,62.16122],[17.2164,62.15024],[17.31967,62.15701],[17.52791,62.13261],[18.11638,62.08718],[18.28798,62.4175],[18.40015,62.47811],[18.96142,62.82034],[19.40954,63.06791],[19.60776,63.10202],[19.28645,63.46341],[19.29279,63.46978],[19.19086,63.57193],[19.18184,63.59843],[19.0443,63.68881],[18.99711,63.7313],[18.95066,63.72897],[18.96187,63.76047],[18.91479,63.77795],[18.90147,63.78259],[18.81997,63.77348],[18.80071,63.7811],[18.80723,63.7885],[18.7573,63.81043],[18.72194,63.80639],[18.68443,63.82034],[18.59437,63.82255],[18.4855,63.84265],[18.47235,63.86381],[18.47918,63.86608],[18.43956,63.89329],[18.426,63.90898],[18.42623,63.91997],[18.40822,63.92155],[18.42001,63.93382],[18.46489,63.93171],[18.46301,63.94429],[18.47546,63.95743],[18.46501,63.97483],[18.42734,63.99097],[18.40604,63.99572],[17.73344,63.8801],[17.33449,63.90768],[16.87832,63.95069],[16.71861,64.02738],[16.58125,63.8732],[16.56608,63.83134],[16.57454,63.78268],[16.59745,63.75446],[16.6142,63.71399],[16.3483,63.69694],[16.3409,63.69049],[16.31928,63.69773],[16.2708,63.65974],[16.22387,63.66121],[16.2233,63.66232],[16.13384,63.68994],[16.13375,63.68681],[16.08716,63.70432],[15.98152,63.65303],[15.9058,63.66422],[15.91024,63.67464],[15.89894,63.683],[15.79207,63.65782],[15.92666,63.59354],[15.99746,63.55064],[15.96583,63.44413],[16.01735,63.43064],[16.05079,63.44756],[16.13952,63.42127],[16.1315,63.38301],[16.09596,63.36918],[16.2038,63.33712],[16.19666,63.33163],[16.24776,63.31194],[16.28733,63.31095],[16.27544,63.30111],[16.60155,63.17313],[16.88842,63.01599],[16.99898,62.94697],[16.72018,62.92199],[16.7092,62.91336],[16.70765,62.92111],[16.68012,62.91201],[16.67019,62.91688],[16.49268,62.8073],[16.41877,62.77111],[16.3699,62.69627],[16.2457,62.71018],[16.13046,62.69121],[15.96538,62.71278],[15.63959,62.63479],[15.51685,62.61724],[15.2451,62.6004],[15.12768,62.55909],[15.09354,62.58407],[14.96712,62.6008],[14.78109,62.59077]],[[16.21945,63.66146],[16.21726,63.66251],[16.22215,63.66231],[16.21945,63.66146]],[[16.61092,62.2231],[16.61083,62.22504],[16.61239,62.22369],[16.61092,62.2231]],[[16.61627,62.22409],[16.61593,62.22474],[16.61639,62.22435],[16.61627,62.22409]],[[16.62171,62.22599],[16.61676,62.22725],[16.62332,62.22607],[16.62171,62.22599]],[[16.62523,62.22557],[16.63388,62.22577],[16.63914,62.22429],[16.64514,62.21949],[16.62523,62.22557]],[[16.64152,62.22405],[16.64029,62.22477],[16.64194,62.22423],[16.64152,62.22405]]],[[[14.79761,62.46627],[14.79806,62.46586],[14.7984,62.4661],[14.79761,62.46627]]],[[[16.4667,62.23379],[16.46629,62.23356],[16.46894,62.23349],[16.4667,62.23379]]]]}},{"type":"Feature","properties":{"name":"Västmanlands län","osm_relation_id":54221},"geometry":{"type":"MultiPolygon","coordinates":[[[[15.42224,59.85415],[15.4412,59.85005],[15.45697,59.83531],[15.44787,59.83128],[15.45611,59.82108],[15.42588,59.79556],[15.5054,59.79607],[15.5124,59.77726],[15.53142,59.76089],[15.5259,59.75337],[15.55323,59.7259],[15.54506,59.7175],[15.55165,59.70007],[15.52893,59.69016],[15.52671,59.666],[15.51254,59.65256],[15.52105,59.63343],[15.56509,59.62704],[15.61569,59.63047],[15.62321,59.59823],[15.63664,59.59124],[15.63223,59.57105],[15.62633,59.57372],[15.62849,59.52006],[15.70475,59.53894],[15.71727,59.51936],[15.71974,59.50752],[15.69058,59.49612],[15.68548,59.47742],[15.71283,59.47579],[15.7309,59.40964],[15.6311,59.40495],[15.62437,59.39704],[15.60397,59.39655],[15.59996,59.36682],[15.61257,59.36331],[15.61923,59.35255],[15.61452,59.34769],[15.63532,59.33395],[15.63179,59.31655],[15.6077,59.28873],[15.69168,59.27053],[15.72654,59.2234],[15.79817,59.23052],[15.76204,59.19792],[15.89274,59.23048],[15.86514,59.28617],[15.87712,59.28018],[15.88056,59.30309],[15.90251,59.29636],[15.91225,59.30547],[15.91119,59.31563],[15.94247,59.32275],[15.93832,59.34139],[15.95437,59.34944],[16.03513,59.36926],[16.07232,59.35197],[16.15768,59.34624],[16.21033,59.35996],[16.26648,59.36195],[16.27365,59.38853],[16.30668,59.39939],[16.24968,59.40954],[16.24514,59.41565],[16.25426,59.45246],[16.3227,59.45288],[16.37151,59.46729],[16.41073,59.45976],[16.66558,59.49228],[16.71138,59.48806],[16.7569,59.50203],[16.8338,59.4984],[16.88451,59.47996],[16.90628,59.47958],[16.9506,59.49396],[16.96591,59.52035],[16.9213,59.54763],[16.85469,59.66691],[16.8201,59.69227],[16.81595,59.71023],[16.78395,59.71837],[16.77577,59.74645],[16.72753,59.77489],[16.76526,59.80248],[16.80804,59.81571],[16.81121,59.81993],[16.79991,59.82485],[16.81809,59.83647],[16.801,59.8441],[16.83713,59.86155],[16.80051,59.86962],[16.79901,59.8815],[16.77306,59.89427],[16.77778,59.90571],[16.80212,59.90868],[16.79433,59.94587],[16.77679,59.95533],[16.76136,59.95115],[16.77165,59.96381],[16.7892,59.96576],[16.74122,59.98067],[16.7337,60.00202],[16.72365,60.00124],[16.71618,60.01086],[16.72747,60.04337],[16.69197,60.08334],[16.71417,60.08937],[16.70516,60.10896],[16.73231,60.11259],[16.73524,60.11773],[16.7275,60.12087],[16.7473,60.13594],[16.73363,60.16564],[16.70479,60.19509],[16.54359,60.17513],[16.52703,60.16462],[16.53858,60.15139],[16.53895,60.13739],[16.43807,60.12477],[16.4043,60.10221],[16.40625,60.09027],[16.38521,60.08941],[16.3872,60.08141],[16.32067,60.07881],[16.32172,60.07311],[16.2887,60.06993],[16.22267,60.08252],[16.20759,60.07276],[16.18413,60.076],[16.18152,60.08449],[16.1418,60.0925],[16.16387,60.1203],[16.13221,60.13863],[16.05188,60.14861],[16.02395,60.18215],[15.94626,60.18498],[15.92657,60.17232],[15.88198,60.1663],[15.80142,60.17748],[15.76704,60.14809],[15.72537,60.14491],[15.72636,60.1283],[15.765,60.13063],[15.75994,60.11571],[15.7477,60.11126],[15.74774,60.10025],[15.72093,60.09345],[15.7123,60.08194],[15.73808,60.08006],[15.70763,60.05752],[15.70657,60.0451],[15.68234,60.05199],[15.69687,60.03386],[15.73188,60.02552],[15.6986,60.01536],[15.71441,60.00015],[15.71954,59.97373],[15.6926,59.94778],[15.67751,59.94542],[15.68175,59.93792],[15.62346,59.93414],[15.60198,59.94806],[15.53123,59.95716],[15.49297,59.93604],[15.50102,59.92802],[15.47339,59.9097],[15.48779,59.89829],[15.46045,59.89466],[15.42224,59.85415]],[[15.44636,59.79721],[15.44734,59.79927],[15.44971,59.79785],[15.44636,59.79721]]],[[[15.44546,59.83873],[15.43733,59.83377],[15.44749,59.8341],[15.44546,59.83873]]],[[[15.4386,59.82151],[15.43847,59.81785],[15.44202,59.81949],[15.4386,59.82151]]],[[[16.4,60.09099],[16.40112,60.09039],[16.40224,60.09123],[16.4,60.09099]]]]}},{"type":"Feature","properties":{"name":"Västra Götalands län","osm_relation_id":54367},"geometry":{"type":"MultiPolygon","coordinates":[[[[10.5935,58.76217],[10.6395,58.51554],[10.66089,58.46822],[10.84806,58.25804],[10.99692,57.9804],[11.14757,57.83464],[11.20256,57.67466],[11.45355,57.50018],[11.77911,57.49967],[11.81803,57.55642],[11.98785,57.56506],[12.01267,57.54567],[12.07506,57.5509],[12.10054,57.56175],[12.17543,57.56483],[12.27723,57.59754],[12.34095,57.56172],[12.31157,57.52098],[12.34452,57.48878],[12.3228,57.46076],[12.33766,57.45106],[12.37785,57.44885],[12.40451,57.43419],[12.41183,57.4171],[12.40515,57.41288],[12.4195,57.40066],[12.39605,57.38116],[12.38445,57.34699],[12.39749,57.32866],[12.41752,57.31957],[12.42457,57.32346],[12.43221,57.31505],[12.42114,57.30707],[12.43022,57.26936],[12.49283,57.28679],[12.50458,57.28106],[12.52953,57.3027],[12.53723,57.31949],[12.55877,57.32116],[12.56005,57.33031],[12.59128,57.34299],[12.62313,57.344],[12.62252,57.33193],[12.64357,57.32986],[12.66166,57.34142],[12.6754,57.32999],[12.69238,57.33461],[12.7055,57.32355],[12.70299,57.31347],[12.74032,57.30092],[12.75868,57.2734],[12.77551,57.2758],[12.80754,57.30111],[12.83615,57.26972],[12.90612,57.27035],[12.93171,57.26297],[12.93124,57.25072],[12.95416,57.2412],[12.91443,57.21983],[12.92033,57.19884],[12.91216,57.18062],[12.9388,57.17321],[12.97396,57.18325],[13.03901,57.18029],[13.02091,57.15749],[13.04535,57.15548],[13.05239,57.14644],[13.0953,57.15916],[13.10015,57.14555],[13.11695,57.14933],[13.19406,57.22741],[13.18794,57.23658],[13.19929,57.25035],[13.24297,57.25974],[13.26191,57.24923],[13.28743,57.28269],[13.28213,57.30745],[13.36871,57.32155],[13.38782,57.34104],[13.43302,57.34904],[13.43565,57.36905],[13.46842,57.37127],[13.48186,57.39322],[13.5116,57.39822],[13.51548,57.41023],[13.5043,57.41422],[13.5142,57.42821],[13.5313,57.43045],[13.5832,57.47554],[13.61005,57.51206],[13.66878,57.53824],[13.68857,57.55829],[13.68659,57.57637],[13.67162,57.58702],[13.67914,57.59524],[13.66887,57.5945],[13.66424,57.61505],[13.67154,57.62753],[13.70763,57.63829],[13.72482,57.66943],[13.72249,57.69169],[13.6942,57.70574],[13.72969,57.71838],[13.7143,57.73064],[13.75388,57.77344],[13.7472,57.77748],[13.74645,57.81164],[13.73764,57.81706],[13.73146,57.84529],[13.74218,57.86533],[13.76636,57.87843],[13.76147,57.89339],[13.79195,57.90925],[13.78927,57.92215],[13.7712,57.92595],[13.76585,57.93773],[13.7413,57.94035],[13.72905,57.93127],[13.71245,57.96575],[13.68761,57.97706],[13.71927,57.97606],[13.72761,57.98853],[13.72067,57.99168],[13.73318,57.99816],[13.74879,57.9938],[13.75753,58.00067],[13.75246,58.00849],[13.77373,58.00644],[13.77245,58.01992],[13.75285,58.02532],[13.77177,58.02422],[13.76624,58.036],[13.77324,58.04824],[13.79003,58.05596],[13.79624,58.05408],[13.7916,58.04768],[13.80501,58.05553],[13.86523,58.0412],[13.86892,58.05094],[13.94889,58.03426],[13.96294,58.00783],[14.06953,58.02506],[14.06459,58.03892],[14.11631,58.07534],[14.10766,58.0817],[14.12203,58.1001],[14.11863,58.12118],[14.12877,58.14633],[14.16866,58.12835],[14.20568,58.1353],[14.31426,58.13178],[14.41774,58.19106],[14.52043,58.35596],[14.67346,58.51007],[14.77882,58.64617],[14.69893,58.69663],[14.68919,58.71256],[14.69571,58.72108],[14.69123,58.74012],[14.62165,58.73735],[14.62636,58.69426],[14.54069,58.67691],[14.55542,58.70527],[14.54599,58.71873],[14.53397,58.71272],[14.52715,58.7235],[14.51635,58.7237],[14.50559,58.71359],[14.47682,58.71337],[14.4701,58.72147],[14.47539,58.73654],[14.47051,58.78103],[14.42144,58.79473],[14.38254,58.82983],[14.38957,58.84577],[14.36004,58.85006],[14.3788,58.86583],[14.39905,58.86427],[14.38468,58.87776],[14.395,58.88363],[14.37389,58.8833],[14.36142,58.89807],[14.33743,58.89645],[14.32391,58.90373],[14.32362,58.92166],[14.28524,58.94833],[14.29785,59.01222],[14.23172,59.02924],[14.22423,59.04546],[14.17997,59.04079],[14.142,59.05248],[14.0382,59.04295],[14.03309,59.03736],[14.04413,59.02865],[13.58881,59.05933],[13.42422,58.95939],[13.33854,58.8124],[13.42508,58.74594],[13.2532,58.72533],[13.1795,58.75557],[13.15144,58.75522],[12.89963,58.81427],[12.77014,59.04382],[12.77289,59.05805],[12.75455,59.13085],[12.71426,59.15085],[12.69544,59.17077],[12.65449,59.17633],[12.65548,59.18611],[12.63493,59.18095],[12.62397,59.17167],[12.63008,59.16434],[12.618,59.1536],[12.61909,59.14179],[12.58889,59.1289],[12.59047,59.12077],[12.57785,59.11202],[12.5171,59.13077],[12.46216,59.1304],[12.45742,59.13216],[12.46849,59.14019],[12.45795,59.14458],[12.46066,59.1528],[12.41508,59.1691],[12.42039,59.17494],[12.45452,59.17369],[12.46247,59.18181],[12.4587,59.19285],[12.42474,59.19304],[12.34709,59.17365],[12.31522,59.18874],[12.31274,59.19679],[12.27395,59.18886],[12.26084,59.1945],[12.23746,59.25497],[12.21463,59.26369],[12.21187,59.25343],[12.18532,59.24999],[12.0822,59.25724],[12.09366,59.20084],[12.10825,59.19565],[12.08457,59.17636],[12.03253,59.2014],[12.02949,59.21199],[12.01351,59.21223],[11.94842,59.24967],[11.94511,59.235],[11.92389,59.22461],[11.82615,59.23783],[11.80023,59.22501],[11.78299,59.20664],[11.77469,59.17067],[11.77802,59.13604],[11.76362,59.11454],[11.78092,59.09963],[11.77623,59.08799],[11.71051,59.03368],[11.69838,59.00056],[11.68391,58.99],[11.69364,58.97778],[11.68443,58.97438],[11.68908,58.95685],[11.67338,58.94196],[11.67586,58.93506],[11.65817,58.93176],[11.652,58.90623],[11.63043,58.90861],[11.59063,58.89072],[11.57782,58.89749],[11.57249,58.88783],[11.5534,58.89893],[11.53371,58.88607],[11.53741,58.87742],[11.50011,58.88938],[11.45581,58.88918],[11.46366,58.93326],[11.46232,58.97306],[11.45387,58.98547],[11.46462,58.99117],[11.4142,59.03969],[11.36841,59.09844],[11.33991,59.11498],[11.28904,59.09958],[11.1535,59.07926],[11.11714,59.01506],[11.06641,58.97739],[10.91791,58.94228],[10.63891,58.89227],[10.5935,58.76217]],[[12.53262,57.33049],[12.52846,57.33446],[12.53257,57.3318],[12.53262,57.33049]],[[13.63652,57.59409],[13.65374,57.6084],[13.66009,57.60613],[13.64929,57.59374],[13.63652,57.59409]]],[[[13.64708,57.60212],[13.64706,57.60137],[13.64884,57.6022],[13.64708,57.60212]]]]}},{"type":"Feature","properties":{"name":"Örebro län","osm_relation_id":54222},"geometry":{"type":"MultiPolygon","coordinates":[[[[14.28524,58.94833],[14.32362,58.92166],[14.32391,58.90373],[14.33743,58.89645],[14.36142,58.89807],[14.37389,58.8833],[14.395,58.88363],[14.38468,58.87776],[14.39905,58.86427],[14.3788,58.86583],[14.36004,58.85006],[14.38957,58.84577],[14.38254,58.82983],[14.42144,58.79473],[14.47051,58.78103],[14.47539,58.73654],[14.4701,58.72147],[14.47682,58.71337],[14.50559,58.71359],[14.51635,58.7237],[14.52715,58.7235],[14.53397,58.71272],[14.54599,58.71873],[14.55542,58.70527],[14.54069,58.67691],[14.62636,58.69426],[14.62165,58.73735],[14.69123,58.74012],[14.69571,58.72108],[14.68919,58.71256],[14.69893,58.69663],[14.77882,58.64617],[14.80665,58.66505],[14.92922,58.69682],[14.97246,58.6834],[15.01158,58.70558],[15.03454,58.70429],[15.06695,58.75436],[15.08365,58.76673],[15.09307,58.76189],[15.0964,58.7689],[15.1151,58.7702],[15.13252,58.78705],[15.11907,58.79084],[15.13812,58.82065],[15.16743,58.81066],[15.19826,58.81473],[15.21809,58.82727],[15.21901,58.84275],[15.24696,58.83834],[15.2406,58.84308],[15.25617,58.84977],[15.26282,58.86514],[15.29518,58.84979],[15.32527,58.85929],[15.34759,58.82921],[15.3814,58.84693],[15.40286,58.84195],[15.41358,58.8069],[15.42938,58.81456],[15.42427,58.82199],[15.45402,58.82106],[15.44065,58.86417],[15.55399,58.87047],[15.56329,58.89413],[15.58599,58.8965],[15.59404,58.90558],[15.55839,58.94098],[15.55497,58.9564],[15.59035,58.95955],[15.62908,58.98318],[15.64158,58.97392],[15.67766,58.97419],[15.68754,58.98091],[15.66531,58.98203],[15.65031,58.99614],[15.65492,59.01206],[15.63112,59.01128],[15.61667,59.02258],[15.64098,59.03453],[15.63229,59.03679],[15.63991,59.05411],[15.71051,59.07742],[15.71612,59.0849],[15.70108,59.09445],[15.70727,59.10101],[15.79425,59.10971],[15.79084,59.12137],[15.7976,59.12288],[15.78773,59.13663],[15.79821,59.13698],[15.76204,59.19792],[15.79817,59.23052],[15.72654,59.2234],[15.69168,59.27053],[15.6077,59.28873],[15.63179,59.31655],[15.63532,59.33395],[15.61452,59.34769],[15.61923,59.35255],[15.61257,59.36331],[15.59996,59.36682],[15.60397,59.39655],[15.62437,59.39704],[15.6311,59.40495],[15.7309,59.40964],[15.71283,59.47579],[15.68548,59.47742],[15.69058,59.49612],[15.71974,59.50752],[15.71727,59.51936],[15.70475,59.53894],[15.62849,59.52006],[15.62633,59.57372],[15.63223,59.57105],[15.63664,59.59124],[15.62321,59.59823],[15.61569,59.63047],[15.54595,59.62862],[15.52105,59.63343],[15.51506,59.64233],[15.51254,59.65256],[15.52671,59.666],[15.52893,59.69016],[15.55154,59.6999],[15.54506,59.7175],[15.55397,59.72361],[15.5259,59.75337],[15.53142,59.76089],[15.5124,59.77726],[15.5054,59.79607],[15.42588,59.79556],[15.45611,59.82108],[15.44787,59.83128],[15.45697,59.83531],[15.4412,59.85005],[15.3792,59.87753],[15.36465,59.87713],[15.35526,59.89399],[15.22843,59.97613],[15.20542,60.00178],[15.12546,60.00842],[15.07768,60.04112],[15.04763,60.04948],[15.03404,60.03918],[15.01343,60.05739],[14.90478,60.05134],[14.83818,60.08836],[14.84224,60.10194],[14.8507,60.10419],[14.80766,60.11093],[14.73734,60.08175],[14.75363,59.99718],[14.43704,60.02572],[14.45655,59.97301],[14.33178,59.95171],[14.34052,59.93997],[14.36014,59.93361],[14.35685,59.92003],[14.36641,59.91199],[14.39919,59.91276],[14.42301,59.90126],[14.41221,59.8922],[14.42111,59.88533],[14.41485,59.82178],[14.43471,59.77094],[14.40468,59.75644],[14.4,59.7421],[14.43498,59.68396],[14.4252,59.66475],[14.46135,59.59809],[14.47571,59.52906],[14.43575,59.54224],[14.3908,59.51377],[14.46932,59.43969],[14.40966,59.41361],[14.37854,59.38407],[14.37681,59.36863],[14.36242,59.36757],[14.35537,59.33223],[14.33372,59.33041],[14.30747,59.28771],[14.30833,59.24936],[14.28915,59.22714],[14.29614,59.19634],[14.28956,59.15937],[14.30139,59.13592],[14.29596,59.12708],[14.33757,59.09836],[14.34006,59.08409],[14.29785,59.01222],[14.28524,58.94833]],[[14.34353,59.11013],[14.34352,59.11191],[14.34421,59.11124],[14.34353,59.11013]],[[15.06675,59.99393],[15.06989,59.99551],[15.0702,59.99422],[15.06675,59.99393]],[[15.43733,59.83377],[15.44546,59.83873],[15.44749,59.8341],[15.43733,59.83377]],[[15.43847,59.81785],[15.4386,59.82151],[15.44202,59.81949],[15.43847,59.81785]]],[[[15.44734,59.79927],[15.44636,59.79721],[15.44971,59.79785],[15.44734,59.79927]]]]}},{"type":"Feature","properties":{"name":"Östergötlands län","osm_relation_id":940675},"geometry":{"type":"Polygon","coordinates":[[[14.41774,58.19106],[14.46827,58.13109],[14.54964,58.10514],[14.57096,58.10746],[14.6159,58.09661],[14.75923,58.10382],[14.76564,58.08614],[14.80878,58.08269],[14.88349,58.09108],[14.89778,58.08533],[14.88654,58.09886],[14.89729,58.11177],[14.91489,58.1112],[14.91678,58.12024],[14.89232,58.12387],[14.89213,58.13776],[14.92697,58.13428],[14.98592,58.14938],[14.97579,58.1337],[15.00389,58.11328],[15.03884,58.05673],[15.02765,58.04969],[15.06372,58.02525],[15.08128,57.99895],[15.06664,57.9853],[15.00924,57.98737],[15.01801,57.95827],[14.9866,57.94231],[15.0127,57.92421],[14.99425,57.90665],[15.02252,57.88919],[15.03801,57.85911],[15.07794,57.83859],[15.06774,57.82228],[15.07383,57.80621],[15.08869,57.77278],[15.11972,57.74395],[15.12816,57.71678],[15.17721,57.70465],[15.17556,57.71107],[15.25685,57.70624],[15.28253,57.71496],[15.33331,57.6996],[15.3565,57.70664],[15.42146,57.70473],[15.44633,57.71853],[15.44057,57.7274],[15.45248,57.73235],[15.43058,57.74502],[15.55421,57.7726],[15.54235,57.79017],[15.60805,57.83057],[15.59909,57.85366],[15.63953,57.84893],[15.67711,57.85989],[15.76757,57.85163],[15.82234,57.81656],[15.85365,57.82873],[15.89558,57.82964],[15.94417,57.80331],[15.96462,57.82357],[16.06244,57.87334],[16.05503,57.89379],[16.06397,57.89899],[16.02936,57.92121],[16.01899,57.94373],[16.04633,57.96493],[16.05311,57.96123],[16.09274,57.97824],[16.04978,57.98767],[16.02472,58.01106],[15.99549,58.02197],[15.99691,58.0362],[16.01691,58.05216],[16.01604,58.06064],[15.98803,58.07644],[16.00692,58.08792],[16.02722,58.07372],[16.06989,58.06992],[16.1285,58.08559],[16.14921,58.06183],[16.17824,58.0644],[16.1627,58.08961],[16.17745,58.11021],[16.20361,58.10458],[16.24074,58.136],[16.26478,58.14244],[16.33254,58.11725],[16.36339,58.13013],[16.41075,58.13071],[16.42915,58.11336],[16.45687,58.11213],[16.46487,58.09879],[16.49084,58.08888],[16.53251,58.1162],[16.55071,58.1093],[16.57037,58.09786],[16.56227,58.08927],[16.60688,58.05307],[16.59254,58.05097],[16.60335,58.0466],[16.59924,58.03658],[16.63107,58.01194],[16.62747,58.00279],[16.65786,57.99262],[16.68221,57.9992],[16.72744,57.98487],[16.74316,58.00048],[16.74742,57.9943],[16.78886,58.00407],[16.80421,57.99729],[16.81226,58.00013],[16.82081,58.02674],[16.89612,58.00429],[17.35303,57.99956],[17.53383,58.2599],[17.56928,58.39898],[17.14899,58.50334],[17.1465,58.53267],[17.13093,58.55007],[17.06983,58.59066],[16.97243,58.58099],[16.89009,58.60099],[16.82738,58.59427],[16.74995,58.6271],[16.75843,58.63019],[16.68978,58.67562],[16.64884,58.68188],[16.63919,58.67552],[16.62827,58.68993],[16.5845,58.69793],[16.42702,58.6972],[16.3858,58.70359],[16.37717,58.70815],[16.36864,58.75284],[16.32745,58.77957],[16.30459,58.76833],[16.29518,58.77608],[16.3103,58.79154],[16.28932,58.80071],[16.26361,58.83223],[16.19164,58.83904],[16.18025,58.85848],[16.10218,58.88579],[16.08221,58.91954],[15.91153,58.96241],[15.88244,58.97915],[15.88339,58.98752],[15.86545,58.99056],[15.8721,58.99953],[15.8429,59.01494],[15.81537,59.01875],[15.80693,59.00268],[15.78221,58.98482],[15.7804,58.96922],[15.74121,58.95097],[15.72074,58.98958],[15.68719,58.98939],[15.67766,58.97419],[15.64158,58.97392],[15.62908,58.98318],[15.59035,58.95955],[15.55497,58.9564],[15.55839,58.94098],[15.59404,58.90558],[15.58599,58.8965],[15.56329,58.89413],[15.55399,58.87047],[15.44065,58.86417],[15.45402,58.82106],[15.42427,58.82199],[15.42938,58.81456],[15.41358,58.8069],[15.40286,58.84195],[15.3814,58.84693],[15.34759,58.82921],[15.32527,58.85929],[15.29518,58.84979],[15.26282,58.86514],[15.25617,58.84977],[15.2406,58.84308],[15.24452,58.84447],[15.24696,58.83834],[15.21901,58.84275],[15.21809,58.82727],[15.19826,58.81473],[15.16743,58.81066],[15.13812,58.82065],[15.11907,58.79084],[15.13252,58.78705],[15.1151,58.7702],[15.0964,58.7689],[15.09307,58.76189],[15.08365,58.76673],[15.06695,58.75436],[15.03454,58.70429],[15.01158,58.70558],[14.97246,58.6834],[14.92922,58.69682],[14.80665,58.66505],[14.77882,58.64617],[14.67346,58.51007],[14.52043,58.35596],[14.41774,58.19106]]]}}]}
